ID ; latitude ; longitude ; name ; phone ; email ; address ; address ; address ; address ; address ; href ; 
2028 ; 51.5174235 ; -0.1304698 ; POMME DE PAIN LONDRES ; +44 (0)2076366060 ;  ; 260 Tottenham Court Road ; LONDON ;  ;  ;  ; /fr/pomme-de-pain-londres ; 
1642 ; 52.444734 ; 15.109604 ; OSTROW (SILO) ;  ;  ; Ul.Wiejska 1 ; OSTROW ;  ;  ;  ; /fr/ostrow-silo ; 
1639 ; 52.946073 ; 17.2884089 ; GOLANCZ (SILO) ;  ;  ; Ul.Margoninska 8 ; GOLANCZ ;  ;  ;  ; /fr/golancz-silo ; 
1633 ; 50.8886291 ; -1.396658 ; SOUTHAMPTON GRAIN TERMINAL LTD ; 00 44 2 380 334 433 ;  ; 36 Berth, Test Road - Eastern Docks ; SOUTHAMPTON ;  ;  ;  ; /fr/southampton-grain-terminal-ltd ; 
1601 ; 52.3869221 ; 17.0024459 ; POZNAN (MALTERIE) ; +48.61.650.10.10 ;  ; Ul Folwarczn 22 ; POZNAN ;  ;  ;  ; /fr/poznan-malterie ; 
2042 ; 52.800945232281 ; -1.6532492637634 ; SOUFFLET MALT UK ; 441283501263 ;  ;  ;  ;  ;  ;  ; /fr/soufflet-malt-uk ; 
1640 ; 50.7713123 ; 17.0538448 ; STREZLIN (SILO) ; (+48) 696 068 933 ;  ;  ;  ;  ;  ;  ; /fr/strezlin-silo ; 
1641 ; 52.079811 ; 16.663429 ; KOSCIAN (SILO) ; (+48) 660 670 615 ;  ;  ;  ;  ;  ;  ; /fr/koscian-silo ; 
1638 ; 52.3856663 ; 16.9955925 ; POZNAN ; 48 61 650 10 96 ;  ;  ;  ;  ;  ;  ; /fr/poznan ; 
1629 ; 36.752887 ; 3.042048 ; SOUFFLET ALGERIE ;  ;  ; 16 Rue D'auzia - Hydra ; 16405 ; ALGER ; Algérie ;  ; /fr/soufflet-algerie ; 
1538 ; 49.10331 ; 8.64052 ; AIT ALLEMAGNE ; +49 (0) 7251 50 60 ;  ; Markgraffenstrasse 41-43 / Po Box 1330 Heidelsheim ; 76603 ; BRUCHSAL ; Allemagne ;  ; /fr/ait-allemagne ; 
1617 ; 49.7546948 ; 8.4815034 ; GERNSHEIM (MALTERIE) ; 4 972 515 060 ;  ; Durst Malz Mainzer Strasse 15-16 ; 64579 ; GERNSHEIM ; Allemagne ;  ; /fr/gernsheim-malterie ; 
1616 ; 51.59151 ; 7.29645 ; CASTROP-RAUXEL (MALTERIE) ; 49230594660 ;  ; Durst Malz Weserstrasse 31 ; 44579 ; CASTROP- RAUXEL ; Allemagne ;  ; /fr/castrop-rauxel-malterie ; 
1615 ; 49.1249712 ; 8.5844108 ; BRUCHSAL (MALTERIE) ; 4972515060 ;  ; Durst Malz Markgraffenstrasse 41-43 ; 76603 ; BRUCHSAL ; Allemagne ;  ; /fr/bruchsal-malterie ; 
2041 ; -35.1136496 ; -60.4923647 ; CERFOLY ;  ;  ; Bragado (6640) ; BUENOS AIRES ; Argentine ;  ;  ; /fr/cerfoly ; 
1534 ; -34.6584744 ; -58.4306102 ; AIT ARGENTINE ; 54 11 4918-4029 ;  ; Condor 2320 ; 1437 ; BUENOS AIRES ; Buenos Aires ; Argentine ; /fr/ait-argentine-0 ; 
1619 ; 50.8960734 ; 4.4030751 ; CERES (MOULIN) ; 00 32 22 40 06 00 ; ceres@ceres.be ; 300 Avenue De Vilvorde ; 1130 ; BRUXELLES ; Belgique ;  ; /fr/ceres-moulin ; 
2043 ; -25.428095 ; -49.187776 ; AIT BRASIL ; +55 41 3668-8163 ;  ; R. Salgado Filho ; Pinhais ; PR ; 83324-010 ; Brésil ; /fr/ait-brasil ; 
1618 ; -23.0309385 ; -45.5483236 ; TAUBATE (MALTERIE) ; 551236259400 ;  ; Av. José Benedito Miguel De Paula ; TAUBATE ; 1251571 ; Brésil ;  ; /fr/taubate-malterie ; 
1614 ; 41.9344366 ; 25.5554462 ; HASKOVO (MALTERIE) ; 360000000000 ;  ; Zone Industrielle Nord ; 6300 ; HASKOVO ; Bulgarie ;  ; /fr/haskovo-malterie ; 
1613 ; 43.4170423 ; 24.6066847 ; PLEVEN (MALTERIE) ; 35964805034 ;  ; 5 Vit Street ; 5800 ; PLEVEN ; Bulgarie ;  ; /fr/pleven-malterie ; 
1650 ; 50.3172143 ; 14.3616619 ; VRANANY (SILO) ;  ;  ; 277 07 ; VRANANY ; Tchéquie ;  ;  ; /fr/vranany-silo ; 
1649 ; 50.3374343 ; 14.8015235 ; CHOTETOV (SILO) ;  ;  ; Nâdranì_ 42 ; 294 28 ; CHOTETOV ; Tchéquie ;  ; /fr/chotetov-silo ; 
1648 ; 50.0761111 ; 14.2358333 ; LITOVICE (SILO) ;  ;  ; Litovickìa 672 ; 253 01 ; LITOVICE ; Tchéquie ;  ; /fr/litovice-silo ; 
1647 ; 49.3528107 ; 17.30356 ; KOJETIN (SILO) ;  ;  ; Krenovskìa 1375 ; 752 01 ; KOJETIN ; Tchéquie ;  ; /fr/kojetin-silo ; 
1644 ; 49.0751484 ; 17.433388 ; STARE MESTO ;  ;  ; Zlechovskìa 1699 ; 686 02 ; STARE MESTO ; Tchéquie ;  ; /fr/stare-mesto ; 
1643 ; 49.4724489 ; 17.1067513 ; PROSTEJOV ;  ;  ; Vrahovickìa 2170/56 ; 796 26 ; PROSTEJOV ; Tchéquie ;  ; /fr/prostejov ; 
1612 ; 49.7012089 ; 17.0761546 ; LITOVEL (MALTERIE) ; +420.585.100.422 ;  ; Unicovska 133 ; 78401 ; LITOVEL ; Tchéquie ;  ; /fr/litovel-malterie ; 
1611 ; 50.1855816 ; 15.0436604 ; NYMBURK (MALTERIE) ; +420.325.570.111 ;  ; Prazska Ulice ; 28806 ; NYMBURK ; Tchéquie ;  ; /fr/nymburk-malterie ; 
1609 ; 49.4724489 ; 17.1067513 ; PROSTEJOV (MALTERIE) ; +420.582.328.111 ;  ; Vrahovicka 2170/56 ; 79626 ; PROSTEJOC ; Tchéquie ;  ; /fr/prostejov-malterie ; 
1608 ; 48.8368003 ; 16.1633761 ; HODONICE (MALTERIE) ; +420.515.234.221 ;  ; Cp. 257 ; 67125 ; HODONICE ; Tchéquie ;  ; /fr/hodonice-malterie ; 
1607 ; 49.2916582 ; 17.3993799 ; KROMERIZ ET LÉGUMES SECS (MALTERIE) ; +420.573.330.551 ;  ; J. Silneho 2997 ; 76701 ; KROMERIZ ET LÉGUMES SECS ; Tchéquie ;  ; /fr/kromeriz-et-legumes-secs-malterie ; 
1645 ; 50.0344969 ; 14.3136205 ; REPORYJE (SILO) ;  ;  ; U Vykupniho strediska 218 ; 155 00 ; REPORYJE ; Tchéquie ;  ; /fr/reporyje-silo ; 
1646 ; 49.4801621 ; 16.6095236 ; SKALICE (SILO) ; (+420) 702 075 803 ;  ; Skalice Nad Svitavou 157 ; 679 01 ; SKALICE ; Tchéquie ;  ; /fr/skalice-silo ; 
2034 ; 30.0909837 ; 31.322709 ; POMME DE PAIN LE CAIRE HELIOPOLIS ; (+202) 24 80 20 30 ;  ; City Stars Heliopolis Gate 5, Phase 1, 1 St Floor, Boulevard N4 - 1 ; HELIOPOLIS, CAIRO ; Égypte ;  ;  ; /fr/pomme-de-pain-le-caire-heliopolis ; 
2104 ; 45.856046 ; 4.679038 ; Moulin de Lozanne (BIO) ; 04 72 54 12 72 ;  ; Route du Pont ; 69380 ; Lozanne ; France ;  ; /fr/moulin-de-lozanne-bio ; 
2067 ; 48.494196 ; 3.497875 ; Soufflet Biotechnologies (C.R.I.S) ;  ;  ; Rue de la Poterne au Sel ; 10400 ; NOGENT-SUR-SEINE ; France ;  ; /fr/soufflet-biotechnologies-c-r-i-s ; 
2066 ; 49.19576 ; -0.29831 ; Soufflet Biotechnologies (industries) ;  ;  ; 11 Avenue du Pays de Caen ; 14460 ; COLOMBELLES ; France ;  ; /fr/soufflet-biotechnologies-industries ; 
2055 ; 49.2189593 ; 3.8146512000001 ; POILLY (MAGASIN) ; 326618084 ; mag.poilly@soufflet.com ; Zone Artisanale ; 51170 ; POILLY ; France ;  ; /fr/poilly-magasin ; 
2052 ; 47.1124001 ; 0.57401479999999 ; NOYANT-DE-TOURAINE (SILO) ; 02 47 73 50 24 ;  ; La Justice ; 37800 ; NOYANT-DE-TOURAINE ; France ;  ; /fr/noyant-de-touraine-silo ; 
2051 ; 46.8766869 ; 0.56478200000004 ; INGRANDES (SILO) ; 05 49 02 73 77 ;  ; Zone Industrielle De Saint Ustres ; 86220 ; INGRANDES ; France ;  ; /fr/ingrandes-silo ; 
2050 ; 47.061197 ; 0.72895800000003 ; SEPMES (SILO) ; 02 47 65 44 39 ;  ; Route De Bournan ; 37800 ; SEPMES ; France ;  ; /fr/sepmes-silo ; 
2049 ; 47.046068 ; 0.56289500000003 ; NOUÌÂTRE (SILO) ; 02 47 65 30 72 ;  ; Les Pacages D'argenson ; 37800 ; NOUÌÂTRE ; France ;  ; /fr/nouiatre-silo ; 
2048 ; 47.002287 ; 0.64520500000003 ; DESCARTES (SILO) ; 02 47 92 45 27 ;  ; Le Moulin Neuf ; 37160 ; DESCARTES ; France ;  ; /fr/descartes-silo ; 
2047 ; 47.1299214 ; 0.78013950000002 ; MANTHELAN (SILO) ; 02 47 92 80 76 ;  ; La Croix ; 37240 ; MANTHELAN ; France ;  ; /fr/manthelan-silo ; 
2045 ; 47.1602564 ; 0.57504560000007 ; SAINT-EPAIN (SILO) ; 02 47 65 81 11 ;  ; La Billette ; 37800 ; SAINT-EPAIN ; France ;  ; /fr/saint-epain-silo ; 
2040 ; 43.305466 ; 6.241167 ; PIGNANS (MAGASIN) ; 04 94 00 43 69 ;  ; Zone Artisanale La Lauve Migranon ; 83790 ; PIGNANS ; France ;  ; /fr/pignans-magasin ; 
2027 ; 48.8738877 ; 2.30723 ; POMME DE PAIN BERRI ; 01 45 62 64 93 ;  ; 40, Rue De Berri ; 75008 ; PARIS ; France ;  ; /fr/pomme-de-pain-berri ; 
2026 ; 48.8610626 ; 2.3481257 ; POMME DE PAIN FORUM INNOCENT ; 01 45 08 90 18 ;  ; 16, Rue Berger ; 75001 ; PARIS ; France ;  ; /fr/pomme-de-pain-forum-innocent ; 
2023 ; 48.8707745 ; 2.3344495 ; POMME DE PAIN OPERA ; 01 47 42 14 15 ;  ; 30-32, Rue Louis Legrand ; 75002 ; PARIS ; France ;  ; /fr/pomme-de-pain-opera ; 
2022 ; 48.8708978 ; 2.3053629 ; POMME DE PAIN POINT SHOW ; 01 45 63 26 41 ;  ; Galerie Point Show 66, Avenue Des Champs Elysées ; 75008 ; PARIS ; France ;  ; /fr/pomme-de-pain-point-show ; 
2021 ; 48.8751832 ; 2.3252511 ; POMME DE PAIN SAINT LAZARE ; 01 43 87 48 24 ;  ; 123, Rue Saint Lazare ; 75008 ; PARIS ; France ;  ; /fr/pomme-de-pain-saint-lazare ; 
2020 ; 48.8472501 ; 2.3424794 ; POMME DE PAIN SOUFFLOT ; 01 43 26 40 65 ;  ; 18, Rue Soufflot ; 75005 ; PARIS ; France ;  ; /fr/pomme-de-pain-soufflot ; 
2019 ; 48.8769933 ; 2.3325361 ; POMME DE PAIN TRINITE ; 01 45 26 09 10 ;  ; 66, Rue Saint Lazare ; 75009 ; PARIS ; France ;  ; /fr/pomme-de-pain-trinite ; 
2018 ; 48.9591319 ; 1.855891 ; POMME DE PAIN AUBERGENVILLE ; 01 30 95 82 14 ;  ; Family Village Zac Du Trait D'union Route Des 40 Sous ; 78810 ; AUBERGENVILLE ; France ;  ; /fr/pomme-de-pain-aubergenville ; 
2017 ; 48.8332692 ; 2.2440611 ; POMME DE PAIN BOULOGNE ; 01 46 08 04 18 ;  ; 93 Bld De La République ; 92100 ; BOULOGNE BILLANCOURT ; France ;  ; /fr/pomme-de-pain-boulogne ; 
2015 ; 48.6777949 ; 2.1710329 ; POMME DE PAIN LES ULIS ; 01 69 29 02 26 ;  ; Centre Commercial Les Ulis 2 Rue De L'aubrac ; 91940 ; LES ULIS ; France ;  ; /fr/pomme-de-pain-les-ulis ; 
2014 ; 48.8826308 ; 2.2698678 ; POMME DE PAIN NEUILLY ; 01 70 16 57 13 ;  ; 94 Avenue Charles De Gaulle ; 92220 ; NEUILLY ; France ;  ; /fr/pomme-de-pain-neuilly ; 
2012 ; 49.025663 ; 2.221747 ; POMME DE PAIN TAVERNY ; 01 34 18 24 31 ;  ; Centre Commercial Auchan Les Portes De Taverny ; 95150 ; TAVERNY ; France ;  ; /fr/pomme-de-pain-taverny ; 
2011 ; 50.6313056 ; 2.965497 ; POMME DE PAIN ENGLOS ; 03 20 00 72 60 ;  ; Centre Commercial Englos Les Géants ; 59483 ; MAUBOURDIN ; France ;  ; /fr/pomme-de-pain-englos ; 
2010 ; 50.26374 ; 3.959502 ; POMME DE PAIN LOUVROIL ; 03 27 60 71 58 ;  ; Centre Commercial Auchan, Porte Des Moulins Départementale 121 ; 59720 ; LOUVROIL ; France ;  ; /fr/pomme-de-pain-louvroil ; 
2009 ; 43.7045361 ; 7.2651685 ; POMME DE PAIN NICE ; 04 93 01 05 58 ;  ; Centre Commercial Nice Etoile , Niveau -1 30, Avenue Jean Medecin ; 6000 ; NICE ; France ;  ; /fr/pomme-de-pain-nice ; 
2008 ; 43.6022056 ; 1.4507666 ; POMME DE PAIN TOULOUSE ; 05 61 12 45 89 ;  ; Espace Saint-Georges 51, Bis Rue Du Rempart Saint Etienne ; 31000 ; TOULOUSE ; France ;  ; /fr/pomme-de-pain-toulouse ; 
2006 ; 48.8426053 ; 2.3255107 ; POMME DE PAIN MONTPARNASSE BOULEVARD ; 01 43 35 18 36 ; montpbld@pommedepain.fr ; 82, Boulevard Du Montparnasse ; 75014 ; PARIS ; France ;  ; /fr/pomme-de-pain-montparnasse-boulevard ; 
2005 ; 48.8880117 ; 2.2470556 ; POMME DE PAIN MICHELET ; 01 49 00 01 84 ; michelet@pommedepain.fr ; La Défense (Grande Arche) 37, Cours Michelet ; 92800 ; PUTEAUX ; France ;  ; /fr/pomme-de-pain-michelet ; 
2004 ; 49.0784624 ; 2.0791274 ; POMME DE PAIN OSNY ; 01 30 38 78 99 ; osny@pommedepain.fr ; Centre Commercial Auchan , 4, Chemin Du Poirier ; 95520 ; OSNY ; France ;  ; /fr/pomme-de-pain-osny ; 
2003 ; 49.459778 ; 1.079798 ; POMME DE PAIN MONT SAINT AIGNAN ; 02 35 61 02 39 ;  ; Centre Commercial Carrefour Zac De La Vatine ; 76130 ; MONT SAINT AIGNAN ; France ;  ; /fr/pomme-de-pain-mont-saint-aignan ; 
2001 ; 47.806164 ; 3.636638 ; POMME DE PAIN VENOY EST (A6) ; 03 86 94 14 40 ;  ; Aire Du Soleil Levant (Direction : Province > Paris) ; 89290 ; VENOY ; France ;  ; /fr/pomme-de-pain-venoy-est-a6 ; 
2000 ; 46.761404 ; 5.52946 ; POMME DE PAIN JURA (A39) ; 03 84 44 49 18 ;  ; Aire Du Jura (Direction: Province > Paris) ; 39140 ; ARLAY ; France ;  ; /fr/pomme-de-pain-jura-a39 ; 
1999 ; 45.850073 ; 5.074751 ; POMME DE PAIN DAGNEUX (A 42) ; 04 78 06 36 26 ;  ; Aire De Dagneux ; 1120 ; DAGNEUX ; France ;  ; /fr/pomme-de-pain-dagneux-42 ; 
1998 ; 46.257632 ; 6.108669 ; POMME DE PAIN FERNEY VOLTAIRE ; 09 67 13 76 71 ; ferney@pommedepain.fr ; Centre Commercial La Poterie ; 1210 ; FERNEY VOLTAIRE ; France ;  ; /fr/pomme-de-pain-ferney-voltaire ; 
1997 ; 48.6242713 ; 2.3456126 ; POMME DE PAIN CROIX BLANCHE ; 09 83 28 47 72 ; croixblanche@pommedepain.fr ; Zac De La Croix Blanche 7, Rue Des Mares ; 91700 ; SAINTE GENEVIÈVE DES BOIS ; France ;  ; /fr/pomme-de-pain-croix-blanche ; 
1995 ; 48.935214 ; 2.3327654 ; POMME DE PAIN VILLENEUVE LA GARENNE ; 09 67 38 58 15 ; villeneuvelagarenne@pommedepain.fr ; Centre Commercial Régional Qwartz 4, Boulevard Galiéni ; 92397 ; VILLENEUVE LA GARENNE ; France ;  ; /fr/pomme-de-pain-villeneuve-la-garenne ; 
1994 ; 48.8712313 ; 2.3467896 ; POMME DE PAIN BONNE NOUVELLE ; 01 45 23 31 91 ;  ; 12, Boulevard Poisonnière ; 75009 ; France ;  ;  ; /fr/pomme-de-pain-bonne-nouvelle ; 
1993 ; 48.8640493 ; 2.3310526 ; POMME DE PAIN FORUM DES HALLES ; 01 72 63 64 55 ;  ; Centre Commercial Forum Des Halles, Niveau -3,Grande Galerie ; 75001 ; PARIS ; France ;  ; /fr/pomme-de-pain-forum-des-halles ; 
1992 ; 48.8667254 ; 2.289364 ; POMME DE PAIN KLEBER ; 01 45 05 32 81 ;  ; 86, Avenue Kléber ; 75016 ; PARIS ; France ;  ; /fr/pomme-de-pain-kleber ; 
1990 ; 48.891986 ; 2.319287 ; POMME DE PAIN PALAIS DES CONGRES ; 01 45 72 67 82 ;  ; Centre Commercial Concorde Lafayette , Niveau -1 Porte Maillot ; 75017 ; PARIS ; France ;  ; /fr/pomme-de-pain-palais-des-congres ; 
1989 ; 48.8743123 ; 2.3327118 ; POMME DE PAIN PROVENCE ; 01.42.85.10.65 ;  ; 70, Rue De Provence ; 75009 ; PARIS ; France ;  ; /fr/pomme-de-pain-provence ; 
1988 ; 48.862725 ; 2.287592 ; POMME DE PAIN QUATRE TEMPS TERRASSES ; 01 47 78 76 55 ;  ; Centre Commercial 4 Temps Place Des Terrasses ; 92092 ; PARIS LA DÉFENSE ; France ;  ; /fr/pomme-de-pain-quatre-temps-terrasses ; 
1986 ; 48.8781923 ; 2.2946752 ; POMME DE PAIN TERNES ; 01 45 72 10 02 ;  ; 29, Avenue Des Ternes ; 75017 ; PARIS ; France ;  ; /fr/pomme-de-pain-ternes ; 
1985 ; 48.8756518 ; 2.2968238 ; POMME DE PAIN WAGRAM ; 01 42 27 18 79 ;  ; 10, Avenue De Wagram ; 75008 ; PARIS ; France ;  ; /fr/pomme-de-pain-wagram ; 
1981 ; 48.874927 ; 2.745977 ; POMME DE PAIN MARNE LA VALLEE ; 01 60 31 02 40 ;  ; Avenue Du Clos Rose Zac Du Clos Rose ; MONTEVRAIN ; France ;  ;  ; /fr/pomme-de-pain-marne-la-vallee ; 
1980 ; 48.9412151 ; 2.4970711 ; POMME DE PAIN PARINOR ; 01 48 67 49 50 ;  ; Centre Commercial Parinor Le Haut Du Galy ; 93606 ; AULNAY SOUS BOIS ; France ;  ; /fr/pomme-de-pain-parinor ; 
1979 ; 48.7738734 ; 2.0360157 ; POMME DE PAIN SAINT QUENTIN ; 01 70 42 48 23 ;  ; Centre Commercial Sqy Ouest , Niveau Bas 10, Allée Des Epices ; 78155 ; MONTIGNY LE BRETONNEUX ; France ;  ; /fr/pomme-de-pain-saint-quentin-0 ; 
1978 ; 48.7819096 ; 2.2176999 ; POMME DE PAIN VELIZY 2 ; 01 39 46 11 45 ;  ; Centre Commercial Vélizy 2 Avenue De L'europe ; 78100 ; VÉLIZY ; France ;  ; /fr/pomme-de-pain-velizy-2 ; 
1977 ; 45.7581745 ; 4.8346659 ; POMME DE PAIN LYON BELLECOUR ; 04 72 41 93 43 ;  ; 87, Rue De La République ; 69002 ; LYON ; France ;  ; /fr/pomme-de-pain-lyon-bellecour ; 
1976 ; 43.3640189 ; 5.349631 ; POMME DE PAIN MARSEILLE ; 04 91 69 96 34 ;  ; Centre Commercial Grand Littoral 11, Avenue Saint-Antoine ; 13016 ; MARSEILLE ; France ;  ; /fr/pomme-de-pain-marseille ; 
1975 ; 46.5514971 ; 0.2995003 ; POMME DE PAIN POITIERS ; 05 49 46 26 82 ;  ; Centre Commercial La Sauraie 252, Avenue Du 8 Mai 1945 ; 86000 ; POITIERS ; France ;  ; /fr/pomme-de-pain-poitiers ; 
1973 ; 48.8312369 ; 2.2759362 ; POMME DE PAIN ISSY LES MOULINEAUX ; 01 45 58 04 42 ; issylesmoulineaux@pommedepain.fr ; 24, Rue Du Colonel Pierre Avia ; 75015 ; PARIS ; France ;  ; /fr/pomme-de-pain-issy-les-moulineaux ; 
1972 ; 48.830759 ; 2.359204 ; POMME DE PAIN TOLBIAC (BNF) ; 01 45 86 36 41 ; bnf@pommedepain.fr ; Bibliothèque François Mitterrand 9-13, Rue Marie André Lagroua Weill Halle ; 75013 ; PARIS ; France ;  ; /fr/pomme-de-pain-tolbiac-bnf ; 
1971 ; 48.5386546 ; 2.6599631 ; POMME DE PAIN MELUN ; 01 64 09 34 02 ; melun@pommedepain.fr ; 15, Rue René Pouteau ; 77000 ; MELUN ; France ;  ; /fr/pomme-de-pain-melun ; 
1970 ; 49.4892104 ; 0.129315 ; POMME DE PAIN LE HAVRE ; 02 35 24 26 51 ; docks@pommedepain.fr ; Centre Commercial Docks Vauban Quai Des Antilles ; 76600 ; LE HAVRE ; France ;  ; /fr/pomme-de-pain-le-havre ; 
1969 ; 43.6309604 ; 1.3733017 ; POMME DE PAIN TOULOUSE BLAGNAC ; 05 61 16 70 51 ;  ; Aeroport De Toulouse Blagnac ; 31700 ; BLAGNAC ; France ;  ; /fr/pomme-de-pain-toulouse-blagnac ; 
1968 ; 47.101707 ; 2.284043 ; POMME DE PAIN MARMAGNE (A71) ; 02 48 23 03 11 ;  ; Aire De Bourges Marmagne (Direction: Province > Paris) ; 18500 ; MARMAGNE ; France ;  ; /fr/pomme-de-pain-marmagne-a71 ; 
1967 ; 47.806164 ; 3.636638 ; POMME DE PAIN VENOY OUEST (A6) ; 03 86 94 14 40 ;  ; Aire Grosse Pierre (Direction : Paris > Province) ; 89290 ; VENOY ; France ;  ; /fr/pomme-de-pain-venoy-ouest-a6 ; 
1965 ; 50.6316211 ; 3.1533357 ; POMME DE PAIN VILLENEUVE D'ASCQ ; 03 20 41 15 57 ;  ; Parc Scientifique De La Haute Borne 2, Avenue De Halley ; 59650 ; VILLENEUVE D'ASCQ ; France ;  ; /fr/pomme-de-pain-villeneuve-d-ascq ; 
1964 ; 48.6851249 ; 2.20366 ; POMME DE PAIN COURTABOEUF ; 01 69 28 90 56 ; courtaboeuf@pommedepain.fr ; 19, Avenue Des Indes ; 91940 ; LES ULIS ; France ;  ; /fr/pomme-de-pain-courtaboeuf ; 
1963 ; 48.9061598 ; 2.4831989 ; POMME DE PAIN BONDY ; 01 48 48 82 07 ; bondy@pommedepain.fr ; 130, Avenue Galliéni ; ÊBONDY ; France ;  ;  ; /fr/pomme-de-pain-bondy ; 
1961 ; 50.2874548 ; 2.7804559 ; POMME DE PAIN ARRAS ; 03 21 23 29 80 ;  ; Buffet De La Gare Place Du Marechal Foch ; 62000 ; ARRAS ; France ;  ; /fr/pomme-de-pain-arras ; 
1960 ; 48.870424 ; 2.3068195 ; POMME DE PAIN CHAMPS ELYSEES ; 01 44 95 71 14 ;  ; 50, Avenue Des Champs Elysées ; 75008 ; PARIS ; France ;  ; /fr/pomme-de-pain-champs-elysees ; 
1958 ; 48.873175 ; 2.3345903 ; POMME DE PAIN LAFAYETTE ; 01 47 70 58 47 ;  ; 10, Rue Lafayette ; 75009 ; PARIS ; France ;  ; /fr/pomme-de-pain-lafayette ; 
1956 ; 48.8274791 ; 2.3719025 ; POMME DE PAIN PATAY ; 01 58 06 01 79 ;  ; 92, Rue De Patay ; 75013 ; PARIS ; France ;  ; /fr/pomme-de-pain-patay ; 
1954 ; 48.8504623 ; 2.3303716 ; POMME DE PAIN RENNES ; 01 45 44 88 84 ;  ; 77, Rue De Rennes ; 75006 ; PARIS ; France ;  ; /fr/pomme-de-pain-rennes ; 
1953 ; 48.8591043 ; 2.3485161 ; POMME DE PAIN SEBASTOPOL ; 01 42 21 02 54 ;  ; 15, Bld Sébastopol ; 75001 ; PARIS ; France ;  ; /fr/pomme-de-pain-sebastopol ; 
1952 ; 48.8708775 ; 2.3263841 ; POMME DE PAIN VIGNON ; 01 42 68 08 93 ;  ; 14, Rue Vignon ; 75009 ; PARIS ; France ;  ; /fr/pomme-de-pain-vignon ; 
1951 ; 48.80486 ; 2.334955 ; POMME DE PAIN ARCUEIL ; 01 49 85 31 21 ;  ; Centre Commercial La Vache Noire ; 94110 ; ARCUEIL ; France ;  ; /fr/pomme-de-pain-arcueil ; 
1950 ; 48.8253393 ; 2.394222 ; POMME DE PAIN BERCY 2 ; 01 43 68 03 94 ;  ; Centre Commercial Bercy 2 4, Place De L'europe ; 94220 ; CHARENTON LE PONT ; France ;  ; /fr/pomme-de-pain-bercy-2 ; 
1948 ; 49.0308218 ; 2.1018456 ; POMME DE PAIN ERAGNY ; 01 34 64 46 12 ;  ; Centre Commercial Art De Vivre 1, Rue Du Bas Noyer ; 95610 ; ERAGNY ; France ;  ; /fr/pomme-de-pain-eragny ; 
1947 ; 48.7593211 ; 1.9222437 ; POMME DE PAIN MAUREPAS ; 01 30 49 97 32 ;  ; Centre Commercial Pariswest Rue Johannes Gutenberg ; 78310 ; MAUREPAS ; France ;  ; /fr/pomme-de-pain-maurepas ; 
1945 ; 48.7738734 ; 2.0360157 ; POMME DE PAIN SAINT QUENTIN ; 01 70 42 48 23 ;  ; Centre Commercial Sqy Ouest , Niveau Haut 10, Allée Des Epices ; 78155 ; MONTIGNY LE BRETONNEUX ; France ;  ; /fr/pomme-de-pain-saint-quentin ; 
1942 ; 48.6893653 ; 6.1789219 ; POMME DE PAIN NANCY ; 03 83 37 95 20 ;  ; 57, Rue Saint Jean ; 54000 ; NANCY ; France ;  ; /fr/pomme-de-pain-nancy ; 
1941 ; 48.5830346 ; 7.7469594 ; POMME DE PAIN STRASBOURG ; 03 88 32 81 36 ;  ; 6, Rue Des Grandes Arcades ; 67000 ; STRASBOURG ; France ;  ; /fr/pomme-de-pain-strasbourg ; 
1939 ; 48.8454864 ; 2.3542316 ; POMME DE PAIN JUSSIEU ; 01 47 07 09 25 ; jussieu@pommedepain.fr ; 31, Rue Linné ; 75005 ; PARIS ; France ;  ; /fr/pomme-de-pain-jussieu ; 
1938 ; 48.759255 ; 2.302553 ; POMME DE PAIN ANTONY ; 01 40 96 09 51 ; antony@pommedepain.fr ; Croix De Berny 131, Avenue Aristide Briand ; 92160 ; ANTONY ; France ;  ; /fr/pomme-de-pain-antony ; 
1937 ; 48.9858625 ; 2.372639 ; POMME DE PAIN SARCELLES ; 01 39 90 10 85 ; sarcelles@pommedepain.fr ; Centre Commercial My Place 200, Avenue De La Division Leclerc ; 95200 ; SARCELLES ; France ;  ; /fr/pomme-de-pain-sarcelles ; 
1935 ; 47.662095 ; 1.373219 ; POMME DE PAIN BLOIS (A10) ; 02 54 46 84 73 ;  ; Aire De Blois Villerbon (Direction Province > Paris) ; 41000 ; VILLERBON ; France ;  ; /fr/pomme-de-pain-blois-a10 ; 
1933 ; 45.847988 ; 3.793151 ; POMME DE PAIN HAUT FOREZ (A72) ; 04 77 24 78 89 ;  ; Aire Du Haut Forez (Direction: Clermont-Ferrand > Lyon) ; 42440 ; LES SALLES ; France ;  ; /fr/pomme-de-pain-haut-forez-a72 ; 
1932 ; 47.491878 ; -0.5478767 ; POMME DE PAIN ANGERS ; 02 41 87 92 64 ;  ; Place De La Gare (Dans Le Hall De La Gare) ; 49100 ; ANGERS ; France ;  ; /fr/pomme-de-pain-angers ; 
1931 ; 49.897194 ; 2.835166 ; POMME DE PAIN ASSEVILLERS (A1) ; 03 22 85 78 35 ;  ; Aire D'assevillers Ouest ; 80200 ; ASSEVILLERS ; France ;  ; /fr/pomme-de-pain-assevillers-a1 ; 
1930 ; 48.945849 ; 2.68836 ; POMME DE PAIN CLAYE SOUILLY ; 01 60 21 92 44 ;  ; Rn3, Paris-Metz ; 77410 ; CLAYE-SOUILLY ; France ;  ; /fr/pomme-de-pain-claye-souilly ; 
1929 ; 43.3117306 ; -0.3693176 ; POMME DE PAIN PAU ; 09 67 22 73 70 ; pau@pommedepain.fr ; 2, Rue Du Mohedan, 2, Rue Du Vigne & Espaces Vertsmale ; 64000 ; PAU ; France ;  ; /fr/pomme-de-pain-pau ; 
1928 ; 45.698938 ; 4.947071 ; POMME DE PAIN SAINT PRIEST (A 43) ; 04 78 90 52 01 ;  ; Aire De Saint-Priset (Direction: Paris > Province) ; 69800 ; SAINT-PRIEST ; France ;  ; /fr/pomme-de-pain-saint-priest-43 ; 
1927 ; 48.8561195 ; 2.7847124 ; POMME DE PAIN VAL D'EUROPE ; 01 72 68 38 8 ;  ; C.C Val D'europe 14, Cours Du Danube ; 77700 ; SERRIS - VAL D'EUROPE ; France ;  ; /fr/pomme-de-pain-val-d-europe ; 
1925 ; 47.929254 ; -2.396846 ; PLOERMEL ; 030 / 45606309 ;  ; Zi De Camagnon Bp339 ; 56803 ; PLOERMEL ; France ;  ; /fr/ploermel ; 
1922 ; 49.2904328 ; 4.0184392 ; REIMS ; 030 / 20452623 ;  ; 1 Rue Louis Vérel ; 51100 ; REIMS ; France ;  ; /fr/reims ; 
1916 ; 44.0931598 ; 5.0287038 ; AUBIGNAN ;  ;  ; 783 Avenue Du Majoral Jouve ; 84810 ; AUBIGNAN ; France ;  ; /fr/aubignan ; 
1914 ; 43.7851074 ; 4.7429994 ; TARASCON ; +43 19 62 15 61 ;  ; Zac Du Roubian Bp 109 Route De Saint-Rémy ; 13153 ; TARASCON ; France ;  ; /fr/tarascon ; 
1913 ; 49.076031 ; 6.683375 ; FURST 2 ; +43 1890190 8 ;  ; Rue Alexandre Dreux ; 57730 ; FOLSCHVILLER ; France ;  ; /fr/furst-2 ; 
1912 ; 49.076031 ; 6.683375 ; FURST 1 ; +43 662 90 9002 ;  ; Zi Furst ; 57730 ; FOLSCHVILLER ; France ;  ; /fr/furst-1 ; 
1910 ; 46.136803 ; 4.64105 ; REGNIE-DURETTE (MAGASIN) ; 04 74 04 35 77 ; regnie-durette.Vigne & Espaces verts@soufflet.com ; Saint Vincent Régnié - Durette ; 69430 ; REGNIE-DURETTE ; France ;  ; /fr/regnie-durette-magasin ; 
1907 ; 47.0363015 ; -0.0368066 ; TERNAY (SILO) ; 05.49.22.93.77 ;  ; Ets Auguier - Bouteny ; 86120 ; TERNAY ; France ;  ; /fr/ternay-silo ; 
1906 ; 47.0104309 ; 0.178155 ; MESSENE (SILO) ; 05.49.98.04.56 ; auguiersa@orange.fr ; Ets Auguier - Le Bois L'hôpital ; 86200 ; MESSENE ; France ;  ; /fr/messene-silo ; 
1905 ; 48.8661363 ; 2.3434123 ; GRANDS MOULINS DE FRANCE (GMDF) ; 01.42.21.59.00 ;  ; 33, Rue Du Louvre ; 75002 ; PARIS ; France ;  ; /fr/grands-moulins-de-france-gmdf ; 
1904 ; 48.491215 ; 3.494569 ; ETS J. SOUFFLET (SIÈGE DU GROUPE) ; 03 25 39 41 11 ;  ; Quai Du Général Sarrail ; 10400 ; NOGENT SUR SEINE ; France ;  ; /fr/ets-j-soufflet-siege-du-groupe ; 
1903 ; 42.554742 ; 9.424047 ; BORGO (DÉPÔT DE FARINE) ;  ;  ; Setm : Allée Bleue - Zi Purettone ; 20290 ; BORGO ; France ;  ; /fr/borgo-depot-de-farine ; 
1901 ; 43.168653 ; 6.043222 ; LA FARDELE (DÉPÔT DE FARINE) ;  ;  ; Zic Du Bec Du Canard - Rue Dominique Larrey ; 83210 ; LA FARDELE ; France ;  ; /fr/la-fardele-depot-de-farine ; 
1899 ; 43.3453019 ; -0.26266 ; MORLAAS (DÉPÔT DE FARINE) ;  ;  ; Rue D'ossau ; 64160 ; MORLAAS ; France ;  ; /fr/morlaas-depot-de-farine ; 
1898 ; 50.419942 ; 2.994524 ; NOYELLES-GODAULT (DÉPÔT DE FARINE) ;  ;  ; Parc Entreprise - Rue Haute Deile ; 62950 ; NOYELLES-GODAULT ; France ;  ; /fr/noyelles-godault-depot-de-farine ; 
1897 ; 48.6399479 ; 0.0773549 ; MOTREE (DÉPÔT DE FARINE) ;  ;  ; La Croix Clairon ; 61570 ; MOTREE ; France ;  ; /fr/motree-depot-de-farine ; 
1895 ; 47.778071 ; 1.633523 ; BEAUGENCY (DÉPÔT DE FARINE) ;  ;  ; Rue Du Vau Feularde ; 45190 ; MONTILS ; France ;  ; /fr/beaugency-depot-de-farine ; 
1894 ; 44.712698 ; -0.543056 ; MARTILLAC (DÉPÔT DE FARINE) ;  ;  ; Chemin De Marguerite ; 33650 ; MARTILLAC ; France ;  ; /fr/martillac-depot-de-farine ; 
1893 ; 48.544512 ; -3.131867 ; PLOUMAGOAR (DÉPÔT DE FARINE) ;  ;  ; Sainte Catherine ; 22970 ; PLOUMAGOAR ; France ;  ; /fr/ploumagoar-depot-de-farine ; 
1892 ; 44.231558 ; 5.8561486 ; LARAGNE (DÉPÔT DE FARINE) ;  ;  ; La Tulière Lazer ; 5300 ; LARAGNE ; France ;  ; /fr/laragne-depot-de-farine ; 
1891 ; 49.137693 ; 0.456406 ; THIBERVILLE ; 02.32.56.80.52 ; silo.thiberville@soufflet.com ; 4 Route De Bernay ; 27230 ; THIBERVILLE ; France ;  ; /fr/thiberville ; 
1890 ; 49.3792 ; 0.5144 ; SAINT MARDS DE BLACARVILLE ; 02.32.42.05.13 ; silo.saint-mards-de-blacarville@soufflet.com ; 1 Chemin Moulant ; 27500 ; SAINT MARDS DE BLACARVILLE ; France ;  ; /fr/saint-mards-de-blacarville ; 
1889 ; 49.243816 ; 0.584558 ; SAINT GEORGES DU VIEVRE ; 02.32.42.82.20 ; silo.saint-geoges-du-vievre@soufflet.com ; Route De Giverville ; 27450 ; CORME ROYAL ; France ;  ; /fr/saint-georges-du-vievre ; 
1887 ; 49.2925309 ; 4.367859 ; BETHENVILLE (SILO) ; silo.bethenville@soufflet.com ;  ; Route De Neuville ; 51490 ; BETHENVILLE ; France ;  ; /fr/bethenville-silo ; 
1886 ; 48.4920836 ; 3.4948852 ; NOGENT SUR SEINE (SIÈGE SOUFFLET AGRICULTURE) ; 03 25 39 41 11 ;  ; Quai Sarrail ; 10400 ; NOGENT SUR SEINE ; France ;  ; /fr/nogent-sur-seine-siege-soufflet-agriculture ; 
1885 ; 48.4983056 ; 3.4869723 ; NOGENT SUR SEINE (STATION DE SEMENCES) ; 03.25.39.40.24 ; silo.stationdesemences@soufflet.com ; Route De Paris ; 10400 ; NOGENT SUR SEINE ; France ;  ; /fr/nogent-sur-seine-station-de-semences ; 
1884 ; 48.4995623 ; 3.4938692 ; NOGENT SUR SEINE (SILO DE LA GARE) ; 03.25.39.40.25 ; silo.gare-nogent@soufflet.com ; Avenue Beauregard ; 10400 ; NOGENT-SUR-SEINE ; France ;  ; /fr/nogent-sur-seine-silo-de-la-gare ; 
1883 ; 48.464917 ; 3.508743 ; FONTAINE MACON (PLATEFORME LOGISTIQUE) ; 03.25.21.83.40 ; logistique.fm@soufflet.com ; Route De Saint Aubin ; 10400 ; FONTAINE MACON ; France ;  ; /fr/fontaine-macon-plateforme-logistique-0 ; 
1881 ; 47.233018 ; 2.420128 ; SAINT PALAIS (SILO) ; 02.48.23.28.84 ; silo.saint-palais@soufflet.com ; Chemin Des Daurons ; 18110 ; SAINT PALAIS ; France ;  ; /fr/saint-palais-silo ; 
1878 ; 47.062388 ; 2.322142 ; LA CHAPELLE ST URSIN (SILO) ; 02.48.23.00.48 ; silo.la-chapelle-saint-ursin@soufflet.com ; Rue Laburets ; 18570 ; LA CHAPELLE ST URSIN ; France ;  ; /fr/la-chapelle-st-ursin-silo ; 
1875 ; 46.85295 ; 2.376937 ; CHAVANNES (SILO) ; 02.48.60.57.30 ; silo.chavannes@soufflet.com ; La Rebillate ; 18190 ; CHAVANNES ; France ;  ; /fr/chavannes-silo ; 
1874 ; 49.196894 ; 2.844544 ; ORMOY VILLERS (SILO) ; 06.08.74.18.33 ; silo.ormoyvillers@soufflet.com ; Rd98 ; 60800 ; ORMOY VILLERS ; France ;  ; /fr/ormoy-villers-silo ; 
1873 ; 49.298202 ; 2.920317 ; MORIENVAL (SILO) ; 03.44.39.72.90 ; silo.morienval@soufflet.com ; 9 Rue Grandchemont ; 60127 ; MORIENVAL ; France ;  ; /fr/morienval-silo ; 
1872 ; 47.927244 ; 3.520034 ; BONNARD (SILO) ; 03.86.73.23.95 ; silo.bonnard@soufflet.com ; Rue Du Moulin ; 89400 ; BONNARD ; France ;  ; /fr/bonnard-silo ; 
1871 ; 48.512325 ; 4.69811 ; DROYES (SILO) ; silo.droyes@soufflet.com ;  ; Gagnage De La Paix ; 52220 ; DROYES ; France ;  ; /fr/droyes-silo ; 
1870 ; 48.420719 ; 3.243799 ; MOUY SUR SEINE 2 (SILO) ; 01.60.6710.50 ; silo.mouyengrais@soufflet.com ; 50 Rue Des Étangs ; 77480 ; MOUY SUR SEINE ; France ;  ; /fr/mouy-sur-seine-2-silo ; 
1869 ; 47.7951229 ; 2.197965 ; TIGY (SILO) ; 02.38.58.02.30 ; silo.tigy@soufflet.com ; Route De Chateauneuf ; 45510 ; TIGY ; France ;  ; /fr/tigy-silo ; 
1867 ; 48.415133 ; 1.880156 ; SAINVILLE (SILO) ; 02.37.24.60.36 ; silo.sainville@soufflet.com ; Cour De La Gare ; 28700 ; SAINVILLE ; France ;  ; /fr/sainville-silo ; 
1866 ; 48.04798 ; 1.694368 ; PATAY (SILO) ; 02.38.80.80.96 ; silo.patay-bineau@soufflet.com ; Rue Emmanuel Léger ; 45310 ; PATAY ; France ;  ; /fr/patay-silo ; 
1865 ; 48.463315 ; 1.876396 ; PARAY DOUAVILLE (SILO) ; 01.30.88.07.66 ; silo.paray-douaville@soufflet.com ; Le Petit Orme ; 78160 ; PARAY DOUAVILLE ; France ;  ; /fr/paray-douaville-silo ; 
1864 ; 48.121704 ; 1.733939 ; LOIGNY LA BATAILLE (SILO) ; 02.37.99.72.47 ; silo.loigny@soufflet.com ; 7 Fougeu ; 28140 ; LOIGNY LA BATAILLE ; France ;  ; /fr/loigny-la-bataille-silo ; 
1861 ; 48.472734 ; 1.314326 ; FLONVILLE - FONTAINE LA GUYON (SILO) ; 02.37.23.25.39 ;  ; 1 Rue De La Source ; 28190 ; FONTAINE LA GUYON ; France ;  ; /fr/flonville-fontaine-la-guyon-silo ; 
1860 ; 47.835034 ; 2.110944 ; FEROLLES (SILO) ; 02.38.46.80.14 ; silo.ferolles@soufflet.com ; 140 Route De La Ferté ; 45150 ; FEROLLES ; France ;  ; /fr/ferolles-silo ; 
1858 ; 48.495968 ; 1.960147 ; CORBREUSE (SILO) ; 01.64.59.40.92 ; silo.corbreuse@soufflet.com ; 4 Rue Du Plessis ; 91410 ; CORBREUSE ; France ;  ; /fr/corbreuse-silo ; 
1854 ; 47.904108 ; 1.461617 ; BINAS (SILO) ; 02.54.82.41.28 ; silo.binas@soufflet.com ; 18 Rue De La Forêt ; 41240 ; BINAS ; France ;  ; /fr/binas-silo ; 
1852 ; 48.081757 ; 1.878501 ; ARTENAY (SILO) ; 02.38.80.02.35 ; silo.artenay-bineau@soufflet.com ; Zone Industrielle Sud ; 45410 ; ARTENAY ; France ;  ; /fr/artenay-silo ; 
1850 ; 49.1090159 ; 0.529545 ; ST MARTIN DU TILLEUL (SILO) ; 02.32.46.46.52 ; silo.saint-martin-du-tilleul@soufflet.com ; Route De St Vincent Du Boulay ; 27300 ; ST MARTIN DU TILLEUL ; France ;  ; /fr/st-martin-du-tilleul-silo ; 
1848 ; 49.359054 ; 0.72057 ; ROUGEMONTIERS (SILO) ; 02.32.20.15.00 ; silo.rougemontiers@soufflet.com ; Rd94 ; 27350 ; ROUGEMONTIERS ; France ;  ; /fr/rougemontiers-silo ; 
1847 ; 49.177879 ; 1.503521 ; MEZIERES EN VEXIN (SILO) ; 02.32.52.35.45 ; silo.mezieres-en-vexin@soufflet.com ; Hameau De Neze ; 27510 ; MEZIERES EN VEXIN ; France ;  ; /fr/mezieres-en-vexin-silo ; 
1845 ; 48.9764709 ; 1.306648 ; LE CORMIER (SILO) ; 02.32.30.79.73 ; silo.le-cormier@soufflet.com ; Plaine De Martainville ; 27120 ; LE CORMIER ; France ;  ; /fr/le-cormier-silo ; 
1842 ; 47.92272 ; 2.601643 ; THIMORY (SILO) ; 02.38.96.25.10 ; silo.thimory@soufflet.com ; La Groue ; 45260 ; THIMORY ; France ;  ; /fr/thimory-silo ; 
1841 ; 47.818277 ; 2.81903 ; STE GENEVIEVE DES BOIS (SILO) ;  ;  ; Ferme Du Château Du Buisson ; 45230 ; STE GENEVIEVE DES BOIS ; France ;  ; /fr/ste-genevieve-des-bois-silo ; 
1840 ; 48.183625 ; 2.733178 ; SOUPPES SUR LOING (SILO) ; 01.64.29.73.09 ; silo.souppes-sur-loing@soufflet.com ; Port Amont ; 77460 ; SOUPPES SUR LOING ; France ;  ; /fr/souppes-sur-loing-silo ; 
1839 ; 48.2961219 ; 2.203128 ; SERMAISES (SILO) ; 02.38.39.76.11 ; silo.sermaises@soufflet.com ; Dreville ; 45300 ; SERMAISES ; France ;  ; /fr/sermaises-silo ; 
1838 ; 48.1050759 ; 2.595161 ; SCEAUX DU GATINAIS (SILO) ; 02.38.87.42.42 ; silo.sceaux-du-gatinais@soufflet.com ; Rue De L'arquebuse ; 45490 ; SCEAUX DU GATINAIS ; France ;  ; /fr/sceaux-du-gatinais-silo ; 
1837 ; 48.204644 ; 2.471227 ; PUISEAUX 3 (SILO) ; 02.38.33.60.77 ; silo.puiseaux-bineau@soufflet.com ; Chemin Du Charreau - Zi ; 45390 ; PUISEAUX ; France ;  ; /fr/puiseaux-3-silo ; 
1836 ; 48.204644 ; 2.471227 ; PUISEAUX 2 (SILO) ; 02.38.33.53.27 ; silo.puiseaux1@soufflet.com ; 33 Route De Malesherbes ; 45390 ; PUISEAUX ; France ;  ; /fr/puiseaux-2-silo ; 
1835 ; 48.204644 ; 2.471227 ; PUISEAUX (SILO) ; 02.38.34.55.70 ; silo.puiseaux@soufflet.com ; Chemin Latéral ; 45390 ; PUISEAUX ; France ;  ; /fr/puiseaux-silo ; 
1834 ; 48.4449759 ; 2.005134 ; LE PLESSIS ST BENOIST (SILO) ; 01.64.95.51.45 ; silo.le-plessis-saint-benoist@soufflet.com ; Le Bois Du Parc ; 91410 ; LE PLESSIS ST BENOIST ; France ;  ; /fr/le-plessis-st-benoist-silo ; 
1832 ; 48.164553 ; 2.205905 ; PITHIVIERS (SILO) ; 02.38.34.06.92 ; silo.pithiviers-le-vieil@soufflet.com ; La Malterie ; 45300 ; PITHIVIERS LE VIEIL ; France ;  ; /fr/pithiviers-silo ; 
1831 ; 48.069175 ; 2.053725 ; NEUVILLE AUX BOIS (SILO) ; 02.38.75.52.77 ; silo.neuville-aux-bois@soufflet.com ; Rue Des Selliers ; 45170 ; NEUVILLE AUX BOIS ; France ;  ; /fr/neuville-aux-bois-silo ; 
1830 ; 48.295417 ; 2.414853 ; MALESHERBES (SILO) ; 02.38.34.87.13 ; silo.malesherbes@soufflet.com ; 25 Rue De La Gare ; 45330 ; MALESHERBES ; France ;  ; /fr/malesherbes-silo ; 
1829 ; 48.656473 ; 2.385166 ; GRIGNY (SILO) ; 01.69.02.76.00 ; sgrigny@soufflet.com ; 1 Chemin Du Port ; 91350 ; GRIGNY ; France ;  ; /fr/grigny-silo ; 
1828 ; 48.05057 ; 2.655141 ; GONDREVILLE (SILO) ; 02.38.89.87.90 ; silo.gondreville-la-franche@soufflet.com ; 3 Rue Gambetta ; 45490 ; GONDREVILLE LA FRANCHE ; France ;  ; /fr/gondreville-silo ; 
1827 ; 47.698059 ; 2.624758 ; GIEN (SILO) ; 02.38.67.41.32 ; silo.gien@soufflet.com ; Avenue Des Montoires ; 45500 ; GIEN ; France ;  ; /fr/gien-silo ; 
1826 ; 48.434416 ; 2.16142 ; ETAMPES (SILO) ; 01.64.94.19.92 ; silo.etampes@soufflet.com ; Morsang Sud Rd63 ; 91150 ; ETAMPES ; France ;  ; /fr/etampes-silo ; 
1825 ; 48.071806 ; 2.134388 ; CHILLEURS AUX BOIS (SILO) ; 02.38.39.82.42 ; silo.chilleurs-aux-bois@soufflet.com ; Rue De La Gare ; 45170 ; CHILLEURS AUX BOIS ; France ;  ; /fr/chilleurs-aux-bois-silo ; 
1824 ; 48.50355 ; 2.168702 ; CHAUFFOUR LES ETRECHY (SILO) ; 01.60.80.56.89 ;  ; 91580 ; CHAUFFOUR LES ETRECHY ; France ;  ;  ; /fr/chauffour-les-etrechy-silo ; 
1823 ; 48.2335629 ; 2.625239 ; CHATENOY (SILO) ; 01.64.45.51.50 ; silo.chatenoy@soufflet.com ; Route D'ormesson ; 77167 ; CHATENOY ; France ;  ; /fr/chatenoy-silo ; 
1822 ; 48.23189 ; 2.105628 ; CHARMONT EN BEAUCE (SILO) ; 02.38.39.59.61 ; silo.charmont@soufflet.com ; Route De Guignonville ; 45480 ; CHARMONT EN BEAUCE ; France ;  ; /fr/charmont-en-beauce-silo ; 
1821 ; 48.052978 ; 2.9604529 ; CHANTECOQ (SILO) ; 02.38.87.27.85 ; silo.chantecocq@soufflet.com ; Les Grands Champs ; 45320 ; CHANTECOQ ; France ;  ; /fr/chantecoq-silo ; 
1820 ; 47.829053 ; 2.365167 ; BRAY EN VAL (SILO) ; 02.38.35.75.71 ; silo.bray-en-val@soufflet.com ; 955 Route De Bellegarde ; 45460 ; BRAY EN VAL ; France ;  ; /fr/bray-en-val-silo ; 
1819 ; 48.119988 ; 2.35948 ; BOYNES (SILO) ; 02.38.34.56.90 ; silo.boynes@soufflet.com ; Avenue Du Général Leturcq ; 45300 ; BOYNES ; France ;  ; /fr/boynes-silo ; 
1817 ; 48.11875 ; 2.47481 ; AUXY (SILO) ; 02.38.89.84.90 ; silo.auxy@soufflet.com ; Chemin Vert ; 45340 ; AUXY ; France ;  ; /fr/auxy-silo ; 
1816 ; 48.127665 ; 2.252154 ; ASCOUX (SILO) ; 02.38.33.03.30 ; silo.ascoux@soufflet.com ; Rue De La Montagne ; 45300 ; ASCOUX ; France ;  ; /fr/ascoux-silo ; 
1815 ; 48.327214 ; 2.842448 ; VILLECERF (SILO) ; 06.34.39.91.45 ;  ; Route De Villemaréchal ; 77250 ; VILLECERF ; France ;  ; /fr/villecerf-silo ; 
1814 ; 48.179289 ; 3.0964459 ; ST VALERIEN (SILO) ; 06.48.74.02.89 ; silo.saint-valerien@soufflet.com ; Route De Montacher ; 89150 ; ST VALERIEN ; France ;  ; /fr/st-valerien-silo ; 
1813 ; 48.175288 ; 2.871868 ; EGREVILLE (SILO) ; 01.64.29.57.11 ; silo.egreville@soufflet.com ; 71 Rue Edmond Hubert ; 77620 ; EGREVILLE ; France ;  ; /fr/egreville-silo ; 
1811 ; 48.864588 ; 4.725935 ; VANAULT LE CHATEL (SILO) ; 03.26.73.33.74 ; silo.vanault-le-chatel@soufflet.com ; Rue Bassu ; 51330 ; VANAULT LE CHATEL ; France ;  ; /fr/vanault-le-chatel-silo ; 
1810 ; 48.689727 ; 4.733498 ; THIEBLEMONT FAREMONT (SILO) ; silo.thieblemont@soufflet.com ;  ; 2 Rue Du Château D'eau ; 51300 ; THIEBLEMONT FAREMONT ; France ;  ; /fr/thieblemont-faremont-silo ; 
1809 ; 48.802611 ; 4.500192 ; SONGY (SILO) ; 06.17.92.60.97 ; silo.songy@soufflet.com ; Grande Rue ; 51240 ; SONGY ; France ;  ; /fr/songy-silo ; 
1808 ; 48.595306 ; 4.504427 ; SOMSOIS (SILO) ; 03.26.74.22.52 ; silo.somsois@soufflet.com ; Rue Du Stade ; 51290 ; SOMSOIS ; France ;  ; /fr/somsois-silo ; 
1806 ; 49.216198 ; 3.820848 ; POILLY (SILO) ; 03.26.61.80.84 ; silo.poilly@soufflet.com ; Zone D'activité ; 51170 ; POILLY ; France ;  ; /fr/poilly-silo ; 
1805 ; 48.857666 ; 4.483645 ; POGNY (SILO) ; 03.26.67.70.04 ; silo.pogny@soufflet.com ; Rue Général De Gaulle ; 51240 ; POGNY ; France ;  ; /fr/pogny-silo ; 
1804 ; 48.993874 ; 4.243977 ; MATOUGUES (SILO) ; silo.matougues@soufflet.com ;  ; Route De Villers Le Château ; 51510 ; MATOUGUES ; France ;  ; /fr/matougues-silo ; 
1803 ; 48.911458 ; 4.526125 ; MARSON (SILO) ; 03.26.67.90.12 ; silo.marson@soufflet.com ; Rue Libération ; 51240 ; MARSON ; France ;  ; /fr/marson-silo ; 
1802 ; 48.912593 ; 4.651173 ; LE FRESNE (SILO) ; 03.26.67.90.57 ; silo.le-fresne@soufflet.com ; Cd54 ; 51240 ; LE FRESNE ; France ;  ; /fr/le-fresne-silo ; 
1801 ; 48.83434 ; 4.521439 ; LA CHAUSSEE SUR MARNE (SILO) ; 03.26.72.96.03 ; silo.la-chaussee-sur-marne@soufflet.com ; Route D'aulnay ; 51240 ; LA CHAUSSEE SUR MARNE ; France ;  ; /fr/la-chaussee-sur-marne-silo ; 
1800 ; 48.702568 ; 4.540943 ; HUIRON (SILO) ; 03.26.74.22.24 ; silo.huiron@soufflet.com ; Chemin Départemental 14 ; 51300 ; HUIRON ; France ;  ; /fr/huiron-silo ; 
1799 ; 48.7811 ; 4.4008 ; FAUX VESIGNEUL (SILO) ; 03.26.70.60.05 ; silo.faux-vesigneul@soufflet.com ; Rue Montsuzon ; 51320 ; FAUX VESIGNEUL ; France ;  ; /fr/faux-vesigneul-silo ; 
1798 ; 48.956682 ; 4.363073 ; CHALONS EN CHAMPAGNE (SILO) ; 03.26.65.43.45 ;  ; Rue Du Général Patton ; 51108 ; CHALONS EN CHAMPAGNE ; France ;  ; /fr/chalons-en-champagne-silo ; 
1797 ; 49.090069 ; 2.703666 ; EVE (SILO) ; 03.44.60.18.10 ;  ; Route De Ver ; 60330 ; EVE ; France ;  ; /fr/eve-silo ; 
1794 ; 49.15894 ; 5.386757 ; VERDUN (SILO) ; 03.29.84.53.36 ; silo.verdun@soufflet.com ; 10 Rue Du 19ème Bcp ; 55100 ; VERDUN ; France ;  ; /fr/verdun-silo ; 
1793 ; 48.720734 ; 5.278882 ; TRONVILLE EN BARROIS (SILO) ; 03.29.78.80.00 ; silo.tronville-en-barrois@soufflet.com ; 1 Rue Du Filage ; 55310 ; TRONVILLE EN BARROIS ; France ;  ; /fr/tronville-en-barrois-silo ; 
1792 ; 49.119666 ; 6.176905 ; METZ (SILO) ; 03.87.30.29.92 ; smetz@soufflet.com ; Rue De La Grange Aux Dames ; 57050 ; METZ ; France ;  ; /fr/metz-silo ; 
1789 ; 48.936032 ; 5.242508 ; COURCELLES SUR AIRE (SILO) ; silo.la-vaux-marie@soufflet.com ;  ; La Vaux Marie ; 55260 ; COURCELLES SUR AIRE ; France ;  ; /fr/courcelles-sur-aire-silo ; 
1788 ; 48.835707 ; 3.209997 ; ST DENIS LES REBAIS (SILO) ; 01.64.20.97.56 ; silo.saint-denis-les-rebais@soufflet.com ; Chemin Départemental 204 ; 77510 ; ST DENIS LES REBAIS ; France ;  ; /fr/st-denis-les-rebais-silo ; 
1787 ; 48.9373999 ; 3.103201 ; SEPT SORTS (SILO) ; 01.60.22.07.86 ; silo.sept-sorts@soufflet.com ; 5 Rue Merlette - Z.I De Sept Sorts ; 77260 ; SEPT SORTS ; France ;  ; /fr/sept-sorts-silo ; 
1786 ; 48.735704 ; 2.989805 ; PEZARCHES (SILO) ; 01.64.04.10.63 ; silo.pezarches@soufflet.com ; Route De Provins ; 77131 ; PEZARCHES ; France ;  ; /fr/pezarches-silo ; 
1785 ; 48.554611 ; 3.013535 ; NANGIS (SILO) ; 01.64.08.14.45 ; silo.nangis@soufflet.com ; Route De Fontainebleau ; 77370 ; NANGIS ; France ;  ; /fr/nangis-silo ; 
1784 ; 48.610984 ; 2.888184 ; MORMANT (SILO) ; 01.64.06.82.18 ; smormant@soufflet.com ; Rn19 ; 77720 ; MORMANT ; France ;  ; /fr/mormant-silo ; 
1783 ; 48.626922 ; 2.664534 ; LIMOGES FOURCHES (SILO) ; 01.64.38.86.90 ; slimoges@soufflet.com ; Za Du Bois De L'erable ; 77550 ; LIMOGES FOURCHES ; France ;  ; /fr/limoges-fourches-silo ; 
1782 ; 48.593094 ; 3.0751179 ; LA CROIX EN BRIE (SILO) ;  ;  ; Ferme De Bruille ; 77370 ; LA CROIX EN BRIE ; France ;  ; /fr/la-croix-en-brie-silo ; 
1781 ; 48.6102599 ; 2.474805 ; CORBEIL ESSONNES (SILO) ; 01.60.90.41.24 ; silo.corbeil@soufflet.com ; Quai De L'apport Paris ; 91100 ; CORBEIL ESSONNES ; France ;  ; /fr/corbeil-essonnes-silo ; 
1780 ; 47.319558 ; 2.910202 ; TRACY SUR LOIRE (SILO) ; 03.86.26.12.62 ; silo.tracy-sur-loire@soufflet.com ; Route De St Laurent ; 58130 ; TRACY SUR LOIRE ; France ;  ; /fr/tracy-sur-loire-silo ; 
1778 ; 47.326278 ; 2.709771 ; SENS BEAUJEU (SILO) ; 02.48.79.03.14 ; silo.sensbeaujeu@soufflet.com ; 7 Rue De Neuilly ; 18300 ; SENS BEAUJEU ; France ;  ; /fr/sens-beaujeu-silo ; 
1776 ; 47.519566 ; 3.798086 ; GIVRY (SILO) ; 03.86.33.43.50 ; silo.givry@soufflet.com ; Champs De La Bataille ; 89200 ; GIVRY ; France ;  ; /fr/givry-silo ; 
1775 ; 47.081369 ; 3.040808 ; GERMIGNY SUR LOIRE (SILO) ; 03.86.68.85.59 ;  ; Les Morins ; 58320 ; GERMIGNY SUR LOIRE ; France ;  ; /fr/germigny-sur-loire-silo ; 
1774 ; 47.5040819 ; 3.343141 ; ETAIS LA SAUVIN (SILO) ; 03.86.47.23.10 ; silo.etais-la-sauvin@soufflet.com ; 59, Les Roches ; 89480 ; ETAIS LA SAUVIN ; France ;  ; /fr/etais-la-sauvin-silo ; 
1773 ; 47.459605 ; 3.518769 ; CLAMECY (SILO) ; 03.86.27.17.52 ; silo.clamecy@soufflet.com ; Zone Industrielle La Bagatelle ; 58500 ; CLAMECY ; France ;  ; /fr/clamecy-silo ; 
1772 ; 47.531207 ; 3.634653 ; CHATEL CENSOIR (SILO) ; 03.86.81.01.36 ; silo.chatel-censoir@soufflet.com ; Route Auxerre ; 89660 ; CHATEL CENSOIR ; France ;  ; /fr/chatel-censoir-silo ; 
1770 ; 47.815269 ; 3.800451 ; CHABLIS (SILO) ; 03.86.42.10.34 ; silo.chablis@soufflet.com ; Route De Lichères ; 89800 ; CHABLIS ; France ;  ; /fr/chablis-silo ; 
1769 ; 47.246012 ; 3.368133 ; ARZEMBOUY (SILO) ; 03.86.60.11.21 ; sarzembouy@soufflet.com ; Quartier De La Gare ; 58700 ; ARZEMBOUY ; France ;  ; /fr/arzembouy-silo ; 
1768 ; 47.970864 ; 3.718737 ; VERGIGNY (SILO) ; 03.86.43.47.50 ; silo.vergigny@soufflet.com ; Avenue Du 19 Mars 62 ; 89600 ; VERGIGNY ; France ;  ; /fr/vergigny-silo ; 
1767 ; 48.03401 ; 3.708913 ; VENIZY (SILO) ; 03.86.35.08.27 ; silo.venizy@soufflet.com ; Rue Saint Fiacre ; 89210 ; VENIZY ; France ;  ; /fr/venizy-silo ; 
1766 ; 47.834987 ; 3.911747 ; SERRIGNY (SILO) ; 03.86.54.42.73 ; silo.serrigny@soufflet.com ; Les Fourneaux ; 89700 ; SERRIGNY ; France ;  ; /fr/serrigny-silo ; 
1762 ; 47.777121 ; 4.094861 ; PACY SUR ARMANCON (SILO) ; 03.86.75.60.92 ; spacy@soufflet.com ; Route Lezinnes ; 89160 ; PACY SUR ARMANCON ; France ;  ; /fr/pacy-sur-armancon-silo ; 
1761 ; 47.917423 ; 3.438829 ; NEUILLY CHAMPLAY (SILO) ; 03.86.73.76.94 ; silo.neuilly@soufflet.com ; Route De Joigny ; 89113 ; NEUILLY ; France ;  ; /fr/neuilly-champlay-silo ; 
1760 ; 47.655792 ; 3.482554 ; MERRY SEC (SILO) ; 03.86.41.66.38 ; silo.merry-sec@soufflet.com ; Haut Merry ; 89560 ; MERRY SEC ; France ;  ; /fr/merry-sec-silo ; 
1759 ; 47.800807 ; 4.089466 ; LEZINNES (SILO) ; 03.86.75.63.45 ; silo.lezinnes@soufflet.com ; 19 Avenue De La Gare ; 89160 ; LEZINNES ; France ;  ; /fr/lezinnes-silo ; 
1758 ; 47.856622 ; 4.214111 ; CRUZY LE CHATEL (SILO) ; 03.86.75.24.81 ; silo.cruzy-le-chatel@soufflet.com ; Chemin De Gigny ; 89470 ; CRUZY LE CHATEL ; France ;  ; /fr/cruzy-le-chatel-silo ; 
1757 ; 48.085062 ; 4.29692 ; VILLEMORIEN (SILO) ; 03.25.29.92.08 ; silo.villemorien@soufflet.com ; Route Arrelles ; 10110 ; VILLEMORIEN ; France ;  ; /fr/villemorien-silo ; 
1756 ; 48.040786 ; 4.567712 ; VERPILLERES SUR OURCE (SILO) ; 03.25.29.71.72 ; silo.verpilleres-sur-ource@soufflet.com ; Ferme Herbues ; 10360 ; VERPILLERES SUR OURCE ; France ;  ; /fr/verpilleres-sur-ource-silo ; 
1755 ; 48.174292 ; 4.184667 ; VAUDES (SILO) ; 03.25.42.88.47 ; silo.vaudes@soufflet.com ; 10260 ; VAUDES ; France ;  ;  ; /fr/vaudes-silo ; 
1754 ; 47.733441 ; 4.459703 ; PUITS (SILO) ; 03.80.93.14.37 ; silo.puits@soufflet.com ; Voie Coulmier ; 21400 ; PUITS ; France ;  ; /fr/puits-silo ; 
1751 ; 47.7077 ; 4.985748 ; POINSON LES GRANCEY (SILO) ; 03.80.81.03.03 ; silo.beneuvre-gare@soufflet.com ; Gare Poinson Les Grancey ; 52160 ; POINSON LES GRANCEY ; France ;  ; /fr/poinson-les-grancey-silo ; 
1749 ; 47.484031 ; 5.216524 ; LUX (SILO) ; 03.80.75.38.92 ; silo.lux@soufflet.com ; Chemin Puits Perdu ; 21120 ; LUX ; France ;  ; /fr/lux-silo ; 
1748 ; 48.186796 ; 4.525092 ; LONGPRE LE SEC (SILO) ; 03.25.41.38.14 ; silo.longpre-le-sec@soufflet.com ; Route Vendeuvre Sur Barse ; 10140 ; LONGPRE LE SEC ; France ;  ; /fr/longpre-le-sec-silo ; 
1747 ; 48.348882 ; 4.532268 ; DIENVILLE (SILO) ; 03.25.92.20.45 ; silo.dienville@soufflet.com ; 2 Rue Du Moulin ; 10500 ; DIENVILLE ; France ;  ; /fr/dienville-silo ; 
1744 ; 47.692838 ; 4.940874 ; BENEUVRE (SILO) ; 03.80.81.00.33 ; silo.beneuvre@soufflet.com ; Route Départementale 959 ; 21290 ; BENEUVRE ; France ;  ; /fr/beneuvre-silo ; 
1743 ; 47.986028 ; 4.1980259 ; BALNOT LA GRANGE (SILO) ; 03.25.70.07.33 ; silo.balnot-la-grange@soufflet.com ; Le Charme ; 10210 ; BALNOT LA GRANGE ; France ;  ; /fr/balnot-la-grange-silo ; 
1742 ; 48.233825 ; 3.556888 ; VILLENEUVE L'ARCHEVEQUE (SILO) ; 03.86.86.71.12 ; silo.villeneuve-larcheveque@soufflet.com ; Rue Europe ; 89190 ; VILLENEUVE L'ARCHEVEQUE ; France ;  ; /fr/villeneuve-l-archeveque-silo ; 
1740 ; 48.406323 ; 3.310514 ; VILLENAUXE LA PETITE (SILO) ; 01.64.01.19.09 ; silo.villenauxe-la-petite@soufflet.com ; Chemin Départemental 59 ; 77480 ; VILLENAUXE LA PETITE ; France ;  ; /fr/villenauxe-la-petite-silo ; 
1739 ; 48.373043 ; 3.537364 ; TRANCAULT B (SILO) ; 03.25.21.73.19 ; silo.trancault-b@soufflet.com ; Route De Soligny ; 10290 ; TRANCAULT ; France ;  ; /fr/trancault-b-silo ; 
1738 ; 48.373043 ; 3.537364 ; TRANCAULT (SILO) ; 03.25.21.75.80 ; silo.trancault@soufflet.com ; Rue Bois Rigault ; 10290 ; TRANCAULT ; France ;  ; /fr/trancault-silo ; 
1737 ; 48.4170667 ; 3.4458409 ; TRAINEL (SILO) ; 03.25.39.10.03 ; silo.trainel@soufflet.com ; Rue Faubourg St Gervais ; 10400 ; TRAINEL ; France ;  ; /fr/trainel-silo ; 
1736 ; 48.2951062 ; 3.3877592 ; THORIGNY SUR OREUSE (SILO) ; 03.86.88.45.01 ; silo.thorigny-sur-oreuse@soufflet.com ; Pointe Bray ; 89260 ; THORIGNY SUR OREUSE ; France ;  ; /fr/thorigny-sur-oreuse-silo ; 
1735 ; 48.343655 ; 3.26016 ; SERGINES (SILO) ; 03.86.66.39.80 ; silo.sergines@soufflet.com ; 89140 ; SERGINES ; France ;  ;  ; /fr/sergines-silo ; 
1734 ; 48.34783 ; 2.975816 ; PETIT FOSSARD (SILO) ; 01.64.32.22.04 ; silo.petitfossard@soufflet.com ; Rd 606 ; 77940 ; ESMANS ; France ;  ; /fr/petit-fossard-silo ; 
1733 ; 48.443177 ; 3.827195 ; ORVILLIERS SAINT JULIEN (SILO) ; 03.25.24.66.51 ; silo.orvilliers@soufflet.com ; Rue Libération ; 10170 ; ORVILLIERS SAINT JULIEN ; France ;  ; /fr/orvilliers-saint-julien-silo ; 
1730 ; 48.3013964 ; 3.7709852 ; MESNIL ST LOUP (SILO) ; 03.25.40.43.90 ; silo.mesnil-saint-loup@soufflet.com ; Route Dierrey ; 10190 ; MESNIL ST LOUP ; France ;  ; /fr/mesnil-st-loup-silo ; 
1729 ; 48.346656 ; 3.638757 ; MARCILLY (SILO) ; 03.25.21.70.99 ; silo.marcilly-le-hayer@soufflet.com ; Rue Vigne & Espaces Verts ; 10290 ; MARCILLY LE HAYER ; France ;  ; /fr/marcilly-silo ; 
1728 ; 48.222513 ; 3.730914 ; LA VOVE (SILO) ; 03.25.46.89.50 ; silo.mesnil-b@soufflet.com ; La Vove ; 10160 ; AIX EN OTHE ; France ;  ; /fr/la-vove-silo ; 
1727 ; 48.423941 ; 3.569116 ; AVANT LES MARCILLY (SILO) ; 03.25.39.21.74 ; silo.avant-les-marcilly@soufflet.com ; 11 Rue Bastille ; 10400 ; AVANT LES MARCILLY ; France ;  ; /fr/avant-les-marcilly-silo ; 
1726 ; 48.470857 ; 4.540002 ; COURCELLES/ VOIRE (SILO) ; 03.25.92.13.96 ; silo.courcelles-sur-voire@soufflet.com ; Rosnay ; 10500 ; COURCELLES/ VOIRE ; France ;  ; /fr/courcelles/voire-silo ; 
1725 ; 48.1697763 ; 4.0221015 ; VILLERY (SILO) ; 03.25.40.29.19 ; silo.villery@soufflet.com ; Rue Champ Bertin ; 10320 ; VILLERY ; France ;  ; /fr/villery-silo ; 
1723 ; 48.361165 ; 4.004128 ; ST LYE (SILO) ; 03.25.41.00.18 ; silo.saint-lye@soufflet.com ; Route De Grange L'evêque ; 10180 ; ST LYE ; France ;  ; /fr/st-lye-silo ; 
1722 ; 48.501919 ; 4.026577 ; PREMIERFAIT (SILO) ; 03.25.37.71.67 ; silo.premierfait@soufflet.com ; Route Nozay ; 10170 ; PREMIERFAIT ; France ;  ; /fr/premierfait-silo ; 
1721 ; 48.2507316 ; 4.242846 ; MONTAULIN (SILO) ; 03.25.41.56.47 ; silo.montaulin@soufflet.com ; Route De Montaulin ; 10270 ; LUSIGNY ; France ;  ; /fr/montaulin-silo ; 
1720 ; 48.3780119 ; 4.1998339 ; LUYERES (SILO) ; 03.25.41.00.58 ; sluyeresc@soufflet.com ; 10 Rue Du Commando M ; 10150 ; LUYERES ; France ;  ; /fr/luyeres-silo ; 
1719 ; 48.430819 ; 4.287807 ; LONGSOLS (SILO) ; 03.25.37.68.67 ; silo.longsols@soufflet.com ; Cd 48 ; 10240 ; LONGSOLS ; France ;  ; /fr/longsols-silo ; 
1718 ; 48.59585 ; 4.231326 ; GRANDVILLE (SILO) ; 03.25.37.95.08 ; silo.grandville@soufflet.com ; Chemin Départemental 9 ; 10700 ; GRANDVILLE ; France ;  ; /fr/grandville-silo ; 
1717 ; 48.617568 ; 4.004954 ; CHAMPFLEURY (SILO) ; 03.25.92.13.96 ; silo.bonne-voisine@soufflet.com ; Bonne Voisine ; 10700 ; CHAMPFLEURY ; France ;  ; /fr/champfleury-silo ; 
1716 ; 48.3008351 ; 4.1497627 ; BOURANTON (SILO) ; 03.25.80.90.36 ; silo.bouranton@soufflet.com ; Route Thennelières ; 10270 ; BOURANTON ; France ;  ; /fr/bouranton-silo ; 
1715 ; 48.4055574 ; 4.3718302 ; AUZON LES MARAIS (SILO) ; 03.25.46.30.89 ; silo.auzon@soufflet.com ; 12 Route Lesmont ; 10220 ; VAL D'AUZON ; France ;  ; /fr/auzon-les-marais-silo ; 
1714 ; 48.537751 ; 4.143492 ; VAL D'AUZON (SILO) ; 03.25.37.81.06 ; silo.arcis-sur-aube@soufflet.com ; Bp 45 ; 10700 ; ARCIS SUR AUBE ; France ;  ; /fr/val-d-auzon-silo ; 
1712 ; 48.537751 ; 4.143492 ; ARCIS SUR AUBE (SILO BIO) ; 03.25.37.81.06 ; silos.arcis-sur-aube@soufflet.com ; 2 Rue Malterie ; 10700 ; ARCIS SUR AUBE ; France ;  ; /fr/arcis-sur-aube-silo-bio ; 
1711 ; 49.1960165 ; 1.4530438 ; NOGENT S/SEINE (SILO DE LA GARE) ; 03.25.39.40.25 ; silo.gare-nogent@soufflet.com ; Nogent Gare ; 10400 ; NOGENT S/SEINE ; France ;  ; /fr/nogent-s/seine-silo-de-la-gare ; 
1710 ; 48.4885182 ; 3.4913692 ; NOGENT S/SEINE (SILO RUE DU CANAL TERRAY) ; 03.25.39 40 45 ; cmanessier@soufflet.com ; Rue Du Canal Terray ; 10400 ; NOGENT S/SEINE ; France ;  ; /fr/nogent-s/seine-silo-rue-du-canal-terray ; 
1709 ; 48.464917 ; 3.508743 ; FONTAINE MACON (PLATEFORME LOGISTIQUE) ; 03.25.21.83.40 ; logistique.fm@soufflet.com ; 10400 ; FONTAINE MACON ; France ;  ;  ; /fr/fontaine-macon-plateforme-logistique ; 
1708 ; 48.6502598 ; 3.4124603 ; VILLIERS ST GEORGES (SILO) ; 01.64.01.90.38 ; silo.villiers-saint-georges@soufflet.com ; 59 Rue De La Gare ; 77560 ; VILLIERS ST GEORGES ; France ;  ; /fr/villiers-st-georges-silo ; 
1707 ; 48.603068 ; 3.467889 ; VILLEGRUIS (SILO) ; 01.64.00.82.44 ; silo.villegruis@soufflet.com ; Silo Ferme Marival ; 77560 ; LOUAN VILLEGRUIS FONTAINE ; France ;  ; /fr/villegruis-silo ; 
1706 ; 48.4073915 ; 3.6609698 ; RIGNY LA NONNEUSE (SILO) ; 03.25.21.63.36 ; silo.rigny-la-nonneuse@soufflet.com ; 1 Route Bailly ; 10290 ; RIGNY LA NONNEUSE ; France ;  ; /fr/rigny-la-nonneuse-silo ; 
1705 ; 48.518529 ; 3.596331 ; PONT SUR SEINE (SILO) ; 03.25.21.40.08 ; silo.pont-sur-seine@soufflet.com ; 3 Rue Chemin Aux Prêtres ; 10400 ; PONT SUR SEINE ; France ;  ; /fr/pont-sur-seine-silo ; 
1704 ; 48.548518 ; 3.293393 ; POIGNY (SILO) ; 01.60.67.62.62 ; silo.poigny-provins@soufflet.com ; Avenue De La Voulzie ; 77160 ; POIGNY ; France ;  ; /fr/poigny-silo ; 
1701 ; 48.829459 ; 3.439724 ; MONTOLIVET (SILO) ; 01.64.03.79.90 ; silo.montolivet@soufflet.com ; Ferme Prime Fosse ; 77320 ; MONTOLIVET ; France ;  ; /fr/montolivet-silo ; 
1700 ; 48.870165 ; 3.535925 ; MONTMIRAIL (SILO) ; 03.26.81.61.12 ; silo.montmirail-b@soufflet.com ; Route De Châlons ; 51210 ; MONTMIRAIL ; France ;  ; /fr/montmirail-silo ; 
1699 ; 48.4847294 ; 3.3446151 ; HERME (SILO) ; 01.64.00.78.01 ; silo.herme@soufflet.com ; Chemin Messe ; 77114 ; HERME ; France ;  ; /fr/herme-silo ; 
1698 ; 48.545938 ; 3.580581 ; COURTAVANT (SILO) ; silo.courtavant@soufflet.com ;  ; Chez Vecten ; 10400 ; COURTAVANT ; France ;  ; /fr/courtavant-silo ; 
1697 ; 48.635345 ; 3.288385 ; COURCHAMP (SILO) ; 01.64.01.07.39 ; silo.courchamp@soufflet.com ; Chemin Départemental 12 ; 77560 ; COURCHAMP ; France ;  ; /fr/courchamp-silo ; 
1696 ; 48.929147 ; 3.552596 ; ARTONGES (SILO) ; 03.23.82.44.87 ; silo.artonges@soufflet.com ; 10 Rue Condé ; 2333 ; ARTONGES ; France ;  ; /fr/artonges-silo ; 
1695 ; 48.5844684 ; 3.8016405 ; ANGLURE (SILO) ; 03.26.42.70.32 ; silo.anglure@soufflet.com ; 2 Route Soyer ; 51260 ; ANGLURE ; France ;  ; /fr/anglure-silo ; 
1694 ; 43.4468466 ; 3.4117261 ; PEZENAS (MAGASIN) ; 04.67.31.66.62 ; pezenas.Vigne & Espaces verts@soufflet.com ; Za Les Rodettes Rue Lagarde ; 34120 ; PEZENAS ; France ;  ; /fr/pezenas-magasin ; 
1693 ; 43.1582863 ; 2.976697 ; NARBONNE (MAGASIN) ; 04.68.48.10.87 ; narbonne.Vigne & Espaces verts@soufflet.com ; Zi La Coupe Impasse Niepce ; 11100 ; NARBONNE ; France ;  ; /fr/narbonne-magasin ; 
1692 ; 48.749358 ; 2.349936 ; RUNGIS (MAGASIN) ; 01.45.60.04.65 ; bcrepeaux@puteaux-sa.fr ; Dépôt Puteaux Min Paris-Rungis Bâtiment E1b - 1 Rue De Montesson ; 94150 ; RUNGIS ; France ;  ; /fr/rungis-magasin ; 
1691 ; 48.82342 ; 1.976374 ; LES CLAYES SOUS BOIS (MAGASIN) ; 01.30.07.79.20 ; puteaux-sa@puteaux-sa.fr ; 20 Rue Jacques Duclos - Bp83, Zi Le Gros Cailloux ; 78340 ; LES CLAYES SOUS BOIS ; France ;  ; /fr/les-clayes-sous-bois-magasin ; 
1687 ; 49.046168 ; 2.341234 ; MOISSELLES (MAGASIN) ; 01.39.91.14.73 ; moisselles.Vigne & Espaces verts@soufflet.com ; 6 Allée Des Jardins - Rd 909 ; 95570 ; MOISSELLES ; France ;  ; /fr/moisselles-magasin ; 
1686 ; 45.2173749 ; -0.753619 ; PAUILLAC (MAGASIN) ; 05.56.59.11.04 ; pauillac.Vigne & Espaces verts@soufflet.com ; Zi De Trompeloup ; 33250 ; PAUILLAC ; France ;  ; /fr/pauillac-magasin ; 
1685 ; 44.6839607 ; -0.2660276 ; SOULIGNAC (MAGASIN) ; 05.56.23.94.08 ; soulignac.Vigne & Espaces verts@soufflet.com ; Le Bourg ; 33760 ; SOULIGNAC ; France ;  ; /fr/soulignac-magasin ; 
1684 ; 44.9712857 ; -0.1414892 ; MONTAGNE (MAGASIN) ; 05.57.74.57.87 ; montagne.Vigne & Espaces verts@soufflet.com ; 65 Le Bourg ; 33570 ; MONTAGNE ; France ;  ; /fr/montagne-magasin ; 
1683 ; 45.3095213 ; -0.9372315 ; LESPARRE MEDOC (MAGASIN) ; 05.56.41.00.31 ; lesparre.Vigne & Espaces verts@soufflet.com ; 17, Cours G. Mendel ; 33410 ; LESPARRE MEDOC ; France ;  ; /fr/lesparre-medoc-magasin ; 
1682 ; 44.72404 ; -0.531276 ; MARTILLAC (MAGASIN) ; 05.56.30.71.04 ; martillac.Vigne & Espaces verts@soufflet.com ; Zi Malleprat, 2 Chemin Marguerite ; 33650 ; MARTILLAC ; France ;  ; /fr/martillac-magasin ; 
1681 ; 43.394509 ; 6.3132339 ; LE LUC (MAGASIN) ; 04 94 86 88 35 ; luc-de-provence.Vigne & Espaces verts@soufflet.com ; Quartier Rompe Coual - Rn7 ; 83340 ; LE LUC ; France ;  ; /fr/le-luc-magasin ; 
1679 ; 44.3661523 ; 4.977022 ; VALREAS (MAGASIN) ; 04.90.35.04.81 ; valreas.Vigne & Espaces verts@soufflet.com ; Les Dignerieux, Route D'orange ; 84600 ; VALREAS ; France ;  ; /fr/valreas-magasin ; 
1676 ; 44.0961858 ; 4.8598278 ; COURTHEZON (MAGASIN) ; 04.90.70.27.99 ; courthezon.Vigne & Espaces verts@soufflet.com ; 1801, Route De Caderousse ; 84350 ; COURTHEZON ; France ;  ; /fr/courthezon-magasin ; 
1673 ; 45.974863 ; 4.707268 ; VILLEFRANCHE (SIÈGE VIGNE & ESPACES VERTS) ; 04.74.65.31.04 ; limas.Vigne & Espaces verts@soufflet.com ; Le Pont Rouge, Cs-20125 Limas ; 69654 ; VILLEFRANCHE CEDEX ; France ;  ; /fr/villefranche-siege-vigne-espaces-verts ; 
1671 ; 45.925796 ; 4.55823 ; SAINT LAURENT D'OINGT (MAGASIN) ; 04.74.71.24.30 ; saint-laurent.Vigne & Espaces verts@soufflet.com ; Les Plaines ; 69620 ; SAINT LAURENT D'OINGT ; France ;  ; /fr/saint-laurent-d-oingt-magasin ; 
1670 ; 46.235505 ; 4.709971 ; JULIENAS (MAGASIN) ; 04.74.04.41.13 ; julienas.Vigne & Espaces verts@soufflet.com ; Les Bêcherats ; 69840 ; JULIENAS ; France ;  ; /fr/julienas-magasin ; 
1669 ; 45.993245 ; 4.621826 ; COGNY (MAGASIN) ; 04.74.67.30.87 ; cogny.Vigne & Espaces verts@soufflet.com ; Régny ; 69640 ; COGNY ; France ;  ; /fr/cogny-magasin ; 
1668 ; 46.080563 ; 5.4649 ; CERDON (MAGASIN) ; 04.74.39.95.97 ; cerdon.Vigne & Espaces verts@soufflet.com ; Rn 84, Pont De Préau ; 1450 ; CERDON ; France ;  ; /fr/cerdon-magasin ; 
1667 ; 45.91514 ; 4.57638 ; LE BOIS D'OINGT (MAGASIN) ; 04.74.71.81.58 ; montebello.Vigne & Espaces verts@soufflet.com ; Champblanc ; 69620 ; LE BOIS D'OINGT ; France ;  ; /fr/le-bois-d-oingt-magasin ; 
1664 ; 47.815269 ; 3.800451 ; CHABLIS (MAGASIN) ; 03.86.42.12.72 ; chablis.Vigne & Espaces verts@soufflet.com ; Les Perrières, Route De Lichères ; 89800 ; CHABLIS ; France ;  ; /fr/chablis-magasin ; 
1663 ; 46.972118 ; 4.7863028 ; MEURSAULT (MAGASIN) ; 03.80.22.17.71 ; beaune.Vigne & Espaces verts@soufflet.com ; 25, Rue De La Gare ; 21190 ; MEURSAULT ; France ;  ; /fr/meursault-magasin ; 
1662 ; 49.054359 ; 3.930111 ; MARDEUIL (MAGASIN) ; 03.26.55.04.29 ; mardeuil.Vigne & Espaces verts@soufflet.com ; Rue Des Pressoirs, Za La Cerisière ; 51530 ; MARDEUIL ; France ;  ; /fr/mardeuil-magasin ; 
1659 ; 49.0821309 ; 3.80161 ; CUCHERY (MAGASIN) ; 03.26.52.29.13 ; cuchery.Vigne & Espaces verts@soufflet.com ; Grande Rue ; 51480 ; CUCHERY ; France ;  ; /fr/cuchery-magasin ; 
1658 ; 48.2251347 ; 4.7124054 ; BAR SUR AUBE (MAGASIN) ; 03.25.27.10.69 ; bar-sur-aube.Vigne & Espaces verts@soufflet.com ; Rue Louis Desprez ; 10200 ; BAR SUR AUBE ; France ;  ; /fr/bar-sur-aube-magasin ; 
1637 ; 45.7285686 ; 4.2256061 ; AGRICEL - SOUFFLET ALIMENTAIRE (LENTILLES) ;  ;  ; Route De St Etienne ; 42110 ; FEURS ; France ;  ; /fr/agricel-soufflet-alimentaire-lentilles ; 
1635 ; 43.669437 ; 4.5909509 ; SOUFFLET ALIMENTAIRE CAMARGUE ; 04 90 93 60 51 ;  ; Route De Gimeaux ; 13200 ; ARLES ; France ;  ; /fr/soufflet-alimentaire-camargue ; 
1632 ; 49.5003943 ; 0.1288105 ; SOCOMAC - ROUEN ; 02 35 36 31 45 ; socomac.rouen@soufflet.com ; Socomac-Rouen 132 Quai Du Danemark ; 76380 ; DIEPPEDALLE CROISET ; France ;  ; /fr/socomac-rouen ; 
1631 ; 46.160329 ; -1.151139 ; SOCOMAC - LA PALLICE ;  ;  ; Socomac - La Pallice Silos Portuaires Socomac - Groupe Soufflet Zi Chef De Baie - Impasse Nicolas Appert ; 17043 ; LA ROCHELLE CEDEX 01 ; France ;  ; /fr/socomac-la-pallice ; 
1627 ; 48.491102 ; 3.495617 ; NOGENT SUR SEINE (SOUFFLET NÉGOCE) ; 03 25 39 40 28 ; trading@soufflet.com ; Quai Du Général Sarrail - Bp 12 ; 10402 ; NOGENT SUR SEINE CEDEX ; France ;  ; /fr/nogent-sur-seine-soufflet-negoce ; 
1626 ; 46.7953041 ; 0.5471967 ; CHATELLERAULT (MOULIN) ; 05 49 20 09 09 ;  ; 92, Avenue Jean Mermoz ; 86103 ; CHATELLERAULT ; France ;  ; /fr/chatellerault-moulin ; 
1624 ; 43.929721 ; 4.994709 ; THOR (MOULIN) ; 04 90 12 13 14 ;  ; Route D'orange ; 84250 ; LE THOR ; France ;  ; /fr/thor-moulin ; 
1622 ; 48.3438439 ; 4.5404955 ; DIENVILLE (MOULIN) ; 03 25 92 50 50 ;  ; Rue Du Moulin ; 10500 ; DIENVILLE ; France ;  ; /fr/dienville-moulin ; 
1621 ; 48.6154066 ; 2.4796656 ; CORBEIL (SIÈGE MOULINS SOUFFLET) ; 01.60.90.41.10 ;  ; 7 Quai De L'apport Paris ; 91100 ; CORBEIL ESSONNES ; France ;  ; /fr/corbeil-siege-moulins-soufflet ; 
1620 ; 49.4321024 ; 1.0022864 ; ROUEN (MOULIN) ; 02 35 36 53 03 ;  ; 103 Quai Du Danemark ; 76380 ; DIEPPEDALLE CROISSET ; France ;  ; /fr/rouen-moulin ; 
1599 ; 48.4920836 ; 3.4948852 ; NOGENT SUR SEINE (MALTERIE) ; 03.25.39.41.11 ;  ; Quai Sarrail ; 10400 ; NOGENT-SUR-SEINE ; France ;  ; /fr/nogent-sur-seine-malterie ; 
1598 ; 47.1440146 ; 5.2097021 ; BRAZEY-EN-PLAINE (MALTERIE) ; 03.80.77.90.90 ;  ; Route De Dijon ; 21470 ; BRAZEY-EN-PLAINE ; France ;  ; /fr/brazey-en-plaine-malterie ; 
1596 ; 48.173423 ; 2.255849 ; PITHIVIERS (MALTERIE) ; 02.38.30.01.80 ;  ; Lieu Dit La Malterie ; 45303 ; PITHIVIERS ; France ;  ; /fr/pithiviers-malterie ; 
1595 ; 50.3180752 ; 3.4479704 ; PROUVY (MALTERIE) ; 03.27.22.18.00 ;  ; Rue Roger Salengro ; 59121 ; PROUVY ; France ;  ; /fr/prouvy-malterie ; 
1592 ; 48.5761017 ; 7.7894002 ; STRASBOURG (MALTERIE) ; 03.88.45.61.11 ;  ; 7 Rue Du Port Du Rhin ; 67000 ; STRASBOUG ; France ;  ; /fr/strasbourg-malterie ; 
1590 ; 49.4033113 ; 1.0102753 ; ROUEN (MALTERIE) ; 02.32.83.28.00 ;  ; Quai Des Roches ; 76380 ; CANTELEU ; France ;  ; /fr/rouen-malterie ; 
1588 ; 48.489666 ; 3.493242 ; Soufflet Biotechnologies (F.H.P.) ; 03 25 39 53 60 ;  ; Quai Du Général Sarrail ; 10400 ; NOGENT-SUR-SEINE ; France ;  ; /fr/soufflet-biotechnologies-f-h-p ; 
1585 ; 46.5012167 ; -1.6232659 ; TALMONT BOIS MARIE (SILO) ; 02 51 90 24 51 ; silo.talmont-bois-marie@soufflet.com ; Bois Marie ; 85440 ; TALMONT ST HILAIRE ; France ;  ; /fr/talmont-bois-marie-silo ; 
1584 ; 46.616345 ; -1.5861019 ; STE FLAIVE DES LOUPS (SILO) ; 02 51 34 08 59 ; silo.ste-flaive-des-loups@soufflet.com ; Za La Croix ; 85150 ; STE FLAIVE DES LOUPS ; France ;  ; /fr/ste-flaive-des-loups-silo ; 
1583 ; 46.893149 ; -1.420457 ; ST SULPICE LE VERDON (SILO) ; 02 51 42 81 63 ; silo.st-sulpice-le-verdon@soufflet.com ; Le Bourg ; 85260 ; ST SULPICE LE VERDON ; France ;  ; /fr/st-sulpice-le-verdon-silo ; 
1581 ; 46.8225889 ; -1.3579527 ; ST DENIS LA CHEVASSE (SILO) ; 02 51 41 39 93 ; silo.st-denis-la-chevasse@soufflet.com ; 4 Rue Marquis De Torcy ; 85170 ; ST DENIS LA CHEVASSE ; France ;  ; /fr/st-denis-la-chevasse-silo ; 
1578 ; 46.862402 ; -1.00701 ; LES HERBIERS (SILO) ; 02 51 67 08 52 ; silo.lesherbiers@soufflet.com ; Rue De L'industrie ; 85500 ; LES HERBIERS ; France ;  ; /fr/les-herbiers-silo ; 
1577 ; 46.7161432 ; -0.9159709 ; CHAVAGNES LES REDOUX (SILO) ; 02 51 92 40 36 ; silo.chavagnes-les-redoux@soufflet.com ; Rue Du Stade ; 85390 ; CHAVAGNES LES REDOUX ; France ;  ; /fr/chavagnes-les-redoux-silo ; 
1576 ; 46.8360805 ; -1.2787752 ; CHAUCHE (SILO) ; 02 51 41 84 46 ;  ; 28 Rue De Grasla ; 85140 ; CHAUCHE ; France ;  ; /fr/chauche-silo ; 
1575 ; 46.507106 ; -1.346824 ; CHAMP ST PERE (SILO) ; 02 51 98 93 07 ;  ; La Gare ; 85540 ; CHAMP ST PERE ; France ;  ; /fr/champ-st-pere-silo ; 
1574 ; 46.5471652 ; -1.062786 ; SAINTE HERMINE (SILO) ; 02 51 27 36 02 ; silo.sainte-hermine@soufflet.com ; Chemin Du Puy Gauthier ; 85210 ; STE HERMINE ; France ;  ; /fr/sainte-hermine-silo ; 
1573 ; 46.3046041 ; -1.2405661 ; ST MICHEL EN L'HERM (SILO) ; 02 51 97 60 96 ; silo.st-michel-en-lherm@soufflet.com ; Route De La Dive ; 85580 ; ST MICHEL EN L'HERM ; France ;  ; /fr/st-michel-en-l-herm-silo ; 
1572 ; 46.465972 ; -0.8065 ; FONTENAY LE COMTE (SILO) ; 02 51 69 20 24 ; silo.fontenay-le-comte@soufflet.com ; 7 Rue De Jéricho ; 85200 ; FONTENAY LE COMTE ; France ;  ; /fr/fontenay-le-comte-silo ; 
1571 ; 46.518018 ; -0.903379 ; L'HERMENAULT (SILO) ; 02 51 00 10 02 ; silo,lhermenault@soufflet.com ; Les Barres ; 85570 ; L'HERMENAULT ; France ;  ; /fr/l-hermenault-silo ; 
1570 ; 47.268869 ; 0.126235 ; LA TAILLEE (SILO) ; 02 51 52 53 39 ; silo.lataillee@soufflet.com ; 21 Rue Malabrie ; 85450 ; LA TAILLE ; France ;  ; /fr/la-taillee-silo ; 
1569 ; 46.378715 ; -1.0814729 ; PUYRAVAULT (SILO) ; 02 51 28 60 81 ; silo.puyravault@soufflet.com ; La Coulée De L'arseau ; 85450 ; PUYRAVAULT ; France ;  ; /fr/puyravault-silo ; 
1568 ; 46.3718519 ; -0.739466 ; MAILLEZAIS (SILO) ; 02 51 00 71 27 ; silo.maillezais@soufflet.com ; 32 Route D'anchais ; 85420 ; MAILLEZAIS ; France ;  ; /fr/maillezais-silo ; 
1567 ; 46.3671524 ; -0.872428 ; VIX (SILO) ; 02 51 00 60 52 ; silo.vix@soufflet.com ; Fief Lacourant ; 85770 ; VIX ; France ;  ; /fr/vix-silo ; 
1566 ; 46.393442 ; -1.198421 ; TRIAIZE (SILO) ; 02 51 98 93 07 ; silo.triaize@soufflet.com ; La Barbière ; 85580 ; TRIAIZE ; France ;  ; /fr/triaize-silo ; 
1565 ; 46.4634777 ; -1.3042568 ; CURZON (SILO) ; 02 51 98 93 07 ; silo.curzon@soufflet.com ; La Bonne Amie ; 85540 ; CURZON ; France ;  ; /fr/curzon-silo ; 
1564 ; 46.4027113 ; -1.0331725 ; CHAILLE LES MARAIS (SILO) ; 02 51 56 70 00 ; silo.chaille-les-marais@soufflet.com ; Za La Coupe Du Rocher ; 85450 ; CHAILLE LES MARAIS ; France ;  ; /fr/chaille-les-marais-silo ; 
1563 ; 46.537776 ; -1.153323 ; BESSAY (SILO) ; 02 51 27 50 32 ; silo.bessay@soufflet.com ; Mainclay ; 85320 ; BESSAY ; France ;  ; /fr/bessay-silo ; 
1562 ; 45.745485 ; -0.881321 ; BALANZAC (SILO) ; 05 46 94 41 90 ; silo.balanzac@soufflet.com ; Le Bourg ; 17600 ; BALANZAC ; France ;  ; /fr/balanzac-silo ; 
1561 ; 45.6087114 ; -0.9148812 ; LE CHAY (SILO) ; 05 46 02 84 94 ; silo.lechay@soufflet.com ; 1 Le Silo ; 17600 ; LE CHAY ; France ;  ; /fr/le-chay-silo ; 
1560 ; 45.471894 ; -0.155689 ; LACHAISE (SILO) ; 05 45 78 72 39 ; silo.lachaise@soufflet.com ; Chez Fourneau Babeuf ; 16300 ; BARBEZIEUX ; France ;  ; /fr/lachaise-silo ; 
1559 ; 45.5512798 ; -0.5009417 ; BELLUIRE (SILO) ; 05 46 91 33 04 ; silo.belluire@soufflet.com ; Les Brandes ; 17600 ; PONS ; France ;  ; /fr/belluire-silo ; 
1558 ; 45.5268507 ; -0.500602 ; CHADENAC (SILO) ; 05 46 91 20 04 ; silo.chadenac@soufflet.com ; 42 Route De Marignac ; 17800 ; CHADENAC ; France ;  ; /fr/chadenac-silo ; 
1557 ; 45.542884 ; -0.802852 ; EPARGNES (SILO) ; 05 46 90 70 91 ; silo.epargnes@soufflet.com ; 8 Rte De Moquesouris ; 17120 ; EPARGNES ; France ;  ; /fr/epargnes-silo ; 
1555 ; 45.359725 ; -0.661983 ; ST GEORGES DES AGOUTS (SILO) ; 05 46 86 01 22 ; silo.saint-georges-des-agouts@soufflet.com ; 3 Route Des Rocs ; 17150 ; ST GEORGES DES AGOUTS ; France ;  ; /fr/st-georges-des-agouts-silo ; 
1554 ; 45.6178389 ; -0.497203 ; BOUGNEAU (SILO) ; 05 46 96 16 50 ; silo.bougneau@soufflet.com ; 4 Rue Limorlin ; 17800 ; BOUGNEAU ; France ;  ; /fr/bougneau-silo ; 
1553 ; 45.650466 ; -0.505477 ; MONTILS (SILO) ; 05 46 96 42 36 ; silo.montils@soufflet.com ; Rue Croix Dandonneau ; 17800 ; MONTILS ; France ;  ; /fr/montils-silo ; 
1552 ; 45.7438182 ; -0.8066819 ; CORME ROYAL (SILO) ; 05 46 94 42 52 ; silo.corme-royal@soufflet.com ; 42 Rue Du Grand Pre ; 17600 ; CORME ROYAL ; France ;  ; /fr/corme-royal-silo ; 
1551 ; 45.689957 ; -1.018655 ; ST SULPICE DE ROYAN (SILO) ; 05 46 22 13 81 ; silo.saint-sulpice-de-royan@soufflet.com ; Petit Peu ; 17200 ; ST SULPICE DE ROYAN ; France ;  ; /fr/st-sulpice-de-royan-silo ; 
1550 ; 45.584884 ; -0.844356 ; COZES (SILO) ; 05 46 90 70 33 ; silo.cozes@soufflet.com ; Route De Royan ; 17120 ; COZES ; France ;  ; /fr/cozes-silo ; 
1546 ; 46.13653 ; -1.008333 ; ST MEDARD D'AUNIS (SILO) ; 05 46 35 92 51 ; silo.stmedard@soufflet.com ; Les Grandes Ratonnières ; 17220 ; ST MEDARD D'AUNIS ; France ;  ; /fr/st-medard-d-aunis-silo ; 
1545 ; 46.128284 ; -0.720076 ; ST GEORGES DU BOIS (SILO) ; 05 46 27 90 17 ; silo.chaille@soufflet.com ; Chaille - 581 Rue Des Brandes ; 17700 ; SAINT GEORGES DU BOIS ; France ;  ; /fr/st-georges-du-bois-silo ; 
1544 ; 44.7954018 ; -0.1233333 ; CLAVETTE (SILO) ; 06 70 64 46 24 ; silo.clavette@soufflet.com ; Rd 108 ; 17220 ; CLAVETTE ; France ;  ; /fr/clavette-silo ; 
1540 ; 46.069339 ; -0.860978 ; LANDRAIS (SILO) ; 05 46 27 77 93 ; silo.landrais@soufflet.com ; Zone Artisanale ; 17260 ; LANDRAIS ; France ;  ; /fr/landrais-silo ; 
1539 ; 46.1008852 ; -0.6658772 ; SAINT MARD (SILO) ; 05 46 68 99 62 ; silo.saint-mard@soufflet.com ; La Jariette De Boisseuil ; 17700 ; ST MARD ; France ;  ; /fr/saint-mard-silo ; 
1535 ; 46.7370464 ; -1.6042224 ; AIT AIZENAY ; 02 51 94 79 99 ;  ; 2 Route De Venansault ; 85190 ; AIZENAY ; France ;  ; /fr/ait-aizenay ; 
1917 ; 43.1179646 ; 5.860099 ; PANETIERE ; 04 98 00 39 40 ;  ; 413 Avenue Robert Brun ; 83500 ; LA SEYNE SUR MER ; France ;  ; /fr/panetiere ; 
1924 ; 43.3148346 ; 3.1383661 ; LE FOURNIL BITERROIS ; 04 67 32 67 67 ;  ; Zae De Viargues Rn 113 ; 34440 ; COLOMBIERS ; France ;  ; /fr/le-fournil-biterrois ; 
1923 ; 49.847066 ; 3.2874 ; SAINT-QUENTIN ; 03 23 62 35 01 ;  ; Zac Parc Des Autoroutes - Rue Georges Charpak ; 21000 ; SAINT-QUENTIN ; France ;  ; /fr/saint-quentin ; 
1915 ; 48.095235 ; -1.060695 ; BREAL ; 02 99 49 31 31 ;  ; Les Portes De Bretagne Parc D'activités De Bréal ; 35370 ; BREAL-SOUS-VITRE ; France ;  ; /fr/breal ; 
1921 ; 45.482786 ; 4.574143 ; SAINT PAUL ; 04 77 73 71 71 ;  ; Zi Les Fraries ; 42740 ; SAINT-PAUL EN JAREZ ; France ;  ; /fr/saint-paul ; 
1911 ; 49.0714513 ; 6.6881719 ; FOLSCHVILLER (SIÈGE) ; 03 87 93 96 70 ;  ; 18 Avenue Foch ; 57730 ; FOLSCHVILLER ; France ;  ; /fr/folschviller-siege ; 
1919 ; 46.555152 ; -1.0587819 ; SAINT-HERMINE ; 02 51 97 91 00 ;  ; Parc D'activité Atlantique ; 85210 ; SAINTE-HERMINE ; France ;  ; /fr/saint-hermine ; 
1920 ; 50.280228 ; 3.9674 ; MAUBEUGE ; 03 27 53 79 70 ;  ; Zi Du Champ De L'abbesse Bp 50207 ; 59600 ; MAUBEUGE ; France ;  ; /fr/maubeuge ; 
1536 ; 49.2399563 ; 2.4595425 ; AIT CREIL ; 03 44 61 79 80 ;  ; 500 Rue Benoit Frachon ; 60740 ; SAINT MAXIMIN ; France ;  ; /fr/ait-creil ; 
2044 ; 47.0994444 ; 0.62111111111111 ; SAINTE-MAURE-DE-TOURAINE (SILO) ; 04 47 72 30 00 ;  ; Route De Sepmes La Brosse ; 37800 ; SAINTE-MAURE-DE-TOURAINE ; France ;  ; /fr/sainte-maure-de-touraine-silo ; 
2053 ; 47.011134 ; 0.60123699999997 ; LA-CELLE-SAINT-AVANT (SILO) ; 07 82 64 70 48 ;  ; Le Corps De Garde ; 37160 ; LA-CELLE-SAINT-AVANT ; France ;  ; /fr/la-celle-saint-avant-silo ; 
1987 ; 48.8502464 ; 2.34237 ; POMME DE PAIN SAINT MICHEL ; 01 72 63 64 78 ;  ; 30, Boulevard Saint Michel ; 75006 ; PARIS ; France ;  ; /fr/pomme-de-pain-saint-michel ; 
1991 ; 48.84225 ; 2.3216208 ; POMME DE PAIN MONTPARNASSE CENTRE COMMERCIAL ; 01 43 35 18 36 ;  ; Centre Commercial Montparnasse , Rez De Chaussée 66, Boulevard Du Montparnasse ; 75015 ; PARIS ; France ;  ; /fr/pomme-de-pain-montparnasse-centre-commercial ; 
2007 ; 48.839649 ; 2.301491 ; POMME DE PAIN GARE MONTPARNASSE ; 01 43 21 55 09 ;  ; Montparnasse Bienvenie 11, Boulevard Vaugirard ; 75015 ; PARIS ; France ;  ; /fr/pomme-de-pain-gare-montparnasse ; 
2013 ; 48.875661 ; 2.485932 ; POMME DE PAIN ROSNY 2 ; 01 72 68 38 82 ;  ; Centre Commercial Régional Rosny 2 Avenue Du Général De Gaulle, Niveau 0 ; 93117 ; ROSNY SOUS BOIS ; France ;  ; /fr/pomme-de-pain-rosny-2 ; 
2024 ; 48.8604496 ; 2.3416493 ; POMME DE PAIN LOUVRE RIVOLI ; 01 47 03 30 84 ;  ; 85, Rue De Rivoli ; 75001 ; PARIS ; France ;  ; /fr/pomme-de-pain-louvre-rivoli ; 
2025 ; 48.8294935 ; 2.3562293 ; POMME DE PAIN ITALIE 2 ; 01 72 63 64 61 ;  ; Centre Commercial Italie 2 Niveau 2 30, Avenue D'italie ; 75013 ; PARIS ; France ;  ; /fr/pomme-de-pain-italie-2 ; 
1940 ; 48.873871 ; 2.3168567 ; POMME DE PAIN BOETIE ; 01 45 62 10 56 ;  ; 21, Rue De La Boétie ; 75008 ; PARIS ; France ;  ; /fr/pomme-de-pain-boetie ; 
1943 ; 45.75826 ; 4.855387 ; POMME DE PAIN LYON PART-DIEU ; 04 78 95 49 63 ;  ; Centre Commercial Lyon Part-Dieu , Niveau 3 ; 69003 ; LYON ; France ;  ; /fr/pomme-de-pain-lyon-part-dieu ; 
1944 ; 48.7046903 ; 2.2537731 ; POMME DE PAIN VILLEBON ; 01 70 56 20 95 ;  ; Centre Commercial Villebon Chemin De Briis ; 91140 ; VILLEBON SUR YVETTE ; France ;  ; /fr/pomme-de-pain-villebon ; 
1946 ; 47.310108 ; 5.1069166 ; POMME DE PAIN QUETIGNY ; 03 45 34 53 86 ;  ; Centre Commercial Carrefour Quetigny Avenue De Bourgogne ; 21800 ; QUETIGNY ; France ;  ; /fr/pomme-de-pain-quetigny ; 
1955 ; 48.8743697 ; 2.3320372 ; POMME DE PAIN PROVENCE CAFE ; 01 42 85 10 65 ;  ; 74, Rue De Provence ; 75009 ; PARIS ; France ;  ; /fr/pomme-de-pain-provence-cafe ; 
1957 ; 48.84225 ; 2.3216208 ; POMME DE PAIN MONTPARNASSE SPORTSWEAR ; 01 43 35 18 36 ;  ; Centre Commercial Montparnasse , 1er Étage / 66, Boulevard Du Montparnasse ; 75015 ; PARIS ; France ;  ; /fr/pomme-de-pain-montparnasse-sportswear ; 
1959 ; 48.857833 ; 2.351013 ; POMME DE PAIN HÌÓTEL DE VILLE ; 01 47 03 30 84 ;  ; 85, Rue De Rivoli ; 75004 ; PARIS ; France ;  ; /fr/pomme-de-pain-hiotel-de-ville ; 
1962 ; -20.8747731 ; 55.4474071 ; POMME DE PAIN SAINT DENIS DE LA REUNION ; 02 62 20 53 13 ; saintdenisdelareunion@pommedepain.fr ; 21, Avenue De La Victoire ; 97400 ; SAINT DENIS DE LA RÉUNION ; France ;  ; /fr/pomme-de-pain-saint-denis-de-la-reunion ; 
1974 ; 48.8435721 ; 2.3719632 ; POMME DE PAIN GARE DE LYON ; 01 43 40 44 63 ;  ; Gare De Lyon Galerie Gamma 197, Rue De Bercy ; 75012 ; PARIS ; France ;  ; /fr/pomme-de-pain-gare-de-lyon ; 
1983 ; 48.8754617 ; 2.3288731 ; POMME DE PAIN CAUMARTIN ; 01 53 20 04 91 ;  ; 66, Rue Caumartin ; 75009 ; PARIS ; France ;  ; /fr/pomme-de-pain-caumartin ; 
1876 ; 46.966682 ; 2.846714 ; IGNOL (SILO) ; 02 48 74 84 50 ; silo.ignol@soufflet.com ; Route De Nérondes ; 18350 ; IGNOL ; France ;  ; /fr/ignol-silo ; 
1879 ; 46.925337 ; 2.406943 ; LEVET (SILO) ; 02 48 23 00 38 ; silo.levet@soufflet.com ; Le Grand Chemin ; 18340 ; LEVET ; France ;  ; /fr/levet-silo ; 
1880 ; 47.185184 ; 2.613415 ; RIANS (SILO) ; 02 48 25 55 64 ; silo.rians@soufflet.com ; Route des Aix d'Anguillon ; 18220 ; RIANS ; France ;  ; /fr/rians-silo ; 
1882 ; 46.629399 ; 2.139779 ; VICQ EXEMPLET (SILO) ; 02.54.30.04.80 ; silo.vicq-exemplet@soufflet.com ; Route Croix Chaillat ; 36400 ; VICQ EXEMPLET ; France ;  ; /fr/vicq-exemplet-silo ; 
1888 ; 49.4512969 ; 1.035511 ; SAGRI GPL ; 02 35 36 31 45 ; psoufflet@soufflet.com ; 4, Quai Du Danemark ; 76380 ; CANTELEU ; France ;  ; /fr/sagri-gpl ; 
1896 ; 48.800478 ; 6.66068 ; MULCEY (DÉPÔT DE FARINE) ; 03 87 86 96 36 ;  ; Moulin De Mulcey ; 57260 ; MULCEY ; France ;  ; /fr/mulcey-depot-de-farine ; 
1900 ; 42.698684 ; 2.8958719 ; PERPIGNAN (DÉPÔT DE FARINE) ; 04 68 61 28 17 ;  ; 271 rue Louis Delaunay ; 66000 ; PERPIGNAN ; France ;  ; /fr/perpignan-depot-de-farine ; 
1902 ; 42.6579849 ; 9.414215 ; FURIANI (DÉPÔT DE FARINE) ; 04 95 59 20 90 ;  ; Canazzi - Rn 193 ; 20600 ; FURIANI ; France ;  ; /fr/furiani-depot-de-farine ; 
1936 ; 49.182863 ; -0.370679 ; POMME DE PAIN MÌÄMORIAL DE CAEN ; 02 31 06 06 48 ;  ; Esplanade Général Eisenhower Bp 55026 ; 14050 ; CAEN ; France ;  ; /fr/pomme-de-pain-miamorial-de-caen ; 
1833 ; 48.164553 ; 2.205905 ; PITHIVIERS 2 (SILO) ; 02.38.30.24.29 ; silo.pithiviers1@soufflet.com ; Chemin du Moulin de Pierre ; 45300 ; PITHIVIERS LE VIEIL ; France ;  ; /fr/pithiviers-2-silo ; 
1843 ; 48.028941 ; 2.628438 ; VILLEVOQUES (SILO) ; 02 38 89 82 01 ; silo.villevoques@soufflet.com ; 15 Rue Des Renards ; 45700 ; VILLEVOQUES ; France ;  ; /fr/villevoques-silo ; 
1844 ; 49.195087 ; 0.569076 ; GIVERVILLE (SILO) ; 02 32 45 93 47 ; silo.giverville@soufflet.com ; La Garenne ; 27560 ; GIVERVILLE ; France ;  ; /fr/giverville-silo ; 
1846 ; 48.833473 ; 1.200879 ; MARCILLY LA CAMPAGNE (SILO) ; 06 61 38 33 68 ; silo.marcilly-la-campagne@soufflet.com ; Rue Du Verger ; 27320 ; MARCILLY LA CAMPAGNE ; France ;  ; /fr/marcilly-la-campagne-silo ; 
1849 ; 49.317242 ; 1.51242 ; SAUSSAY LA CAMPAGNE (SILO) ; 02 32 55 82 31 ; silo.saussay-la-campagne@soufflet.com ; 2 Ancienne Gare ; 27150 ; SAUSSAY LA CAMPAGNE ; France ;  ; /fr/saussay-la-campagne-silo ; 
1851 ; 49.0718249 ; 1.398888 ; ST VINCENT DES BOIS (SILO) ; 06 23 27 54 10 ; silo.boisset@soufflet.com ; Boisset Hennequin ; 27950 ; ST VINCENT DES BOIS ; France ;  ; /fr/st-vincent-des-bois-silo ; 
1853 ; 48.670604 ; 1.306624 ; AUNAY SOUS CRECY (SILO) ; 02 37 38 93 00 ; rpeigne@soufflet.com ; 15 Rue De La Filature ; 28500 ; AUNAY SOUS CRECY ; France ;  ; /fr/aunay-sous-crecy-silo ; 
1855 ; 48.327567 ; 1.694177 ; BOISVILLE LA SAINT PERE (SILO) ; 02.37.99.31.08 ; silo.boisville@soufflet.com ; Za Les Ouches ; 28150 ; BOISVILLE LA SAINT PERE ; France ;  ; /fr/boisville-la-saint-pere-silo ; 
1856 ; 48.5649299 ; 1.507199 ; BOUGLAINVAL (SILO) ; 02 37 22 60 20 ; silo.bouglainval@soufflet.com ; Route Des Berchères ; 28130 ; BOUGLAINVAL ; France ;  ; /fr/bouglainval-silo ; 
1857 ; 48.543237 ; 1.38867 ; CLEVILLIERS (SILO) ; 02 37 23 77 80 ; silo.clevilliers@soufflet.com ; 1 rue du Chateauneuf ; 28300 ; CLEVILLIERS ; France ;  ; /fr/clevilliers-silo ; 
1859 ; 48.4487 ; 1.240084 ; COURVILLE (SILO) ; 06 89 36 21 72 ; silo.courville@soufflet.com ; Route de Billancelle ; 28190 ; COURVILLE SUR EURE ; France ;  ; /fr/courville-silo ; 
1862 ; 47.893201 ; 1.702582 ; HUISSEAU SUR MAUVES (SILO) ; 02 38 80 74 85 ; silo.huisseau@soufflet.com ; 1 Rue De La Dourdaigne ; 45130 ; HUISSEAU SUR MAUVES ; France ;  ; /fr/huisseau-sur-mauves-silo ; 
1863 ; 48.704728 ; 1.176175 ; LA VILLEDIEU (SILO) ; 02.37.38.18.87 ; silo.villedieu@soufflet.com ; lieu-dit Villedieu ; 28270 ; LAONS ; France ;  ; /fr/la-villedieu-silo ; 
1868 ; 48.600221 ; 1.379269 ; ST CHERON DES CHAMPS (SILO) ; 06 21 51 10 89 ; silo.saint-cheron@soufflet.com ; Route De Trémémont ; 28170 ; TREMBLAY LES VILLAGES ; France ;  ; /fr/st-cheron-des-champs-silo ; 
1790 ; 49.274623 ; 5.679307 ; ETON (SILO) ; 03.29.83.73.36 ; silo.eton@soufflet.com ; Route Nationale D106 ; 55240 ; ETON ; France ;  ; /fr/eton-silo ; 
1791 ; 48.4526984 ; 6.188264 ; LANEUVEVILLE (SILO) ; 03 83 42 08 14 ; silo.laneuveville-devant-bayon@soufflet.com ; Za Commerciale ; 54740 ; LANEUVEVILLE DEVANT BAYON ; France ;  ; /fr/laneuveville-silo ; 
1795 ; 49.471133 ; 5.633171 ; VIVIERS SUR CHIERS (SILO) ; 03.82.39.25.80 ; silo.viviers@soufflet.com ; Rue de Viviers ; 54260 ; VIVIERS SUR CHIERS ; France ;  ; /fr/viviers-sur-chiers-silo ; 
1796 ; 49.2361549 ; 2.890059 ; CREPY EN VALOIS (SILO) ; 03 44 39 39 00 ; silo.crepy-en-valois@soufflet.com ; Chemin Des Docks ; 60800 ; CREPY EN VALOIS CEDEX ; France ;  ; /fr/crepy-en-valois-silo ; 
1807 ; 48.738145 ; 4.197908 ; SOMMESOUS (SILO) ; silo.sommesous@soufflet.com ;  ; D18E3 ; 51320 ; SOMMESOUS ; France ;  ; /fr/sommesous-silo ; 
1812 ; 48.8424229 ; 4.458208 ; VITRY LA VILLE (SILO) ; 03 26 67 11 22 ; silo.vitry-la-ville@soufflet.com ; 13 Rue Saint Nicolas ; 51240 ; VITRY LA VILLE ; France ;  ; /fr/vitry-la-ville-silo ; 
1818 ; 48.2044 ; 2.228463 ; BOUZONVILLE EN BEAUCE (SILO) ; 02.38.30.02.05 ; silo.bouzonville-en-beauce@soufflet.com ; D723 Rue de la Grande Mare ; 45300 ; BOUZONVILLE EN BEAUCE ; France ;  ; /fr/bouzonville-en-beauce-silo ; 
1750 ; 48.365267 ; 4.8079409 ; NULLY (SILO) ; 03.25.55.66.97 ; silo.nully@soufflet.com ; Doulevant ; 52110 ; Y ; France ;  ; /fr/nully-silo ; 
1752 ; 48.060904 ; 4.380585 ; POLISY (SILO) ; 03.25.38.51.40 ; spolisotc@soufflet.com ; Rd 452 ; 10110 ; POLISY ; France ;  ; /fr/polisy-silo ; 
1753 ; 48.082906 ; 4.890127 ; PONT LA VILLE (SILO) ; 06 29 87 54 51 ; silo.pont-la-ville@soufflet.com ; Rd 6 La Combe ; 52120 ; PONT LA VILLE ; France ;  ; /fr/pont-la-ville-silo ; 
1763 ; 47.6676 ; 3.819072 ; SACY (SILO) ; 03.86.81.57.50 ; silo.sacy@soufflet.com ; Route de Nitry ; 89270 ; SACY ; France ;  ; /fr/sacy-silo ; 
1764 ; 47.670479 ; 4.074562 ; SARRY (SILO) ; 03.86.82.85.97 ; silo.sarry@soufflet.com ; D12 ; 89310 ; SARRY ; France ;  ; /fr/sarry-silo ; 
1765 ; 47.6472 ; 3.357153 ; SEMENTRON (SILO) ; 03.86.44.20.61 ; silo.sementron@soufflet.com ; Coulon ; 89560 ; SEMENTRON ; France ;  ; /fr/sementron-silo ; 
1771 ; 47.526638 ; 3.539368 ; COULANGES/YONNE (SILO) ; 03.86.81.70.94 ; silo.coulanges@soufflet.com ; 172 Coulanges Sur Yonne ; 89480 ; ARZEMBOUY ; France ;  ; /fr/coulanges/yonne-silo ; 
1777 ; 47.384523 ; 3.692855 ; NUARS (SILO) ; 03 86 24 80 76 ; silo.nuars@soufflet.com ; Route Néron ; 58190 ; NUARS ; France ;  ; /fr/nuars-silo ; 
1779 ; 47.336309 ; 3.066583 ; SUILLY LA TOUR (SILO) ; 03.86.24.46.17 ; silo.suilly-la-tour@soufflet.com ; La Castiniere ; 58150 ; SUILLY LA TOUR ; France ;  ; /fr/suilly-la-tour-silo ; 
1713 ; 48.472114 ; 4.406875 ; AULNAY (SILO) ; 03 25 92 46 25 ; silo.aulnay@soufflet.com ; Rue Principale ; 10240 ; AULNAY ; France ;  ; /fr/aulnay-silo ; 
1724 ; 48.566342 ; 4.022241 ; VIAPRES LE GRAND (SILO) ; 03.25.37.70.32 ; silo.viapres-le-grand@soufflet.com ; Route Plancy Viapres Le Grand ; 10380 ; VIAPRES LE GRAND ; France ;  ; /fr/viapres-le-grand-silo ; 
1731 ; 48.420719 ; 3.243799 ; MOUY SUR SEINE (SILO) ; 01 60 67 04 68 ; smouy@soufflet.com ; 49 Rue Des Etangs ; 77480 ; MOUY SUR SEINE ; France ;  ; /fr/mouy-sur-seine-silo ; 
1732 ; 48.4262273 ; 3.2260974 ; MOUY SUR SEINE (ENGRAIS) ; 01 60 67 04 68 ; silo.mouyengrais@soufflet.com ; 50 Rue Des 2tangs ; 77480 ; MOUY SUR SEINE ; France ;  ; /fr/mouy-sur-seine-engrais ; 
1741 ; 48.406323 ; 3.310514 ; VILLENAUXE LA PETITE B (SILO) ; 01.60.67.18.35 ; silo.villenauxe-b@soufflet.com ; Chemin de Briotte ; 77480 ; VILLENAUXE LA PETITE ; France ;  ; /fr/villenauxe-la-petite-b-silo ; 
1745 ; 47.133592 ; 5.216051 ; BRAZEY EN PLAINE (SILO) ; 03 80 77 90 87 ; silo.brazey@soufflet.com ; 52 Route De Dijon ; 21470 ; BRAZEY EN PLAINE ; France ;  ; /fr/brazey-en-plaine-silo ; 
1746 ; 47.916162 ; 4.664041 ; BRION SUR OURCE (SILO) ; 03.80.93.76.65 ; silo.brion-sur-ource@soufflet.com ; Rd 965, Route de Chaumont ; 21570 ; BRION SUR OURCE ; France ;  ; /fr/brion-sur-ource-silo ; 
1672 ; 46.1230369 ; 4.6230589 ; QUINCIE (MAGASIN) ; 04.74.69.01.23 ; quincie.Vigne&Espacesverts@soufflet.com ; 1299 Lotissement le Clos Saint-Vincent ; 69430 ; QUINCIE ; France ;  ; /fr/quincie-magasin ; 
1674 ; 46.156782 ; 4.674934 ; VILLIE MORGON (MAGASIN) ; 04 74 69 12 51 ; villie-morgon.Vigne&Espacesverts@soufflet.com ; Le Bourg ; 69910 ; VILLIE MORGON ; France ;  ; /fr/villie-morgon-magasin ; 
1675 ; 44.0316947 ; 5.0487544 ; CARPENTRAS (MAGASIN) ; 04.90.60.13.11 ; carpentras.Vigne&Espacesverts@soufflet.com ; Quart Terradou, 1730 Chemin de Saint-Gens ; 84973 ; CARPENTRAS ; France ;  ; /fr/carpentras-magasin ; 
1677 ; 44.247495 ; 4.829854 ; ROCHEGUDE (MAGASIN) ; 04.75.04.80.91 ; rochegude.Vigne&Espacesverts@soufflet.com ; 384 Route de Sainte-Cécile ; 26790 ; ROCHEGUDE ; France ;  ; /fr/rochegude-magasin ; 
1678 ; 44.240968 ; 5.075198 ; VAISON LA ROMAINE (MAGASIN) ; 04.90.28.76.52 ; vaison-la-romaine.Vigne&Espacesverts@soufflet.com ; Avenue Marcel Pagnol ; 84110 ; VAISON LA ROMAINE ; France ;  ; /fr/vaison-la-romaine-magasin ; 
1680 ; 44.122161 ; 5.029084 ; BEAUMES DE VENISE (MAGASIN) ; 04.90.12.44.12 ; beaumes-de-venise.Vigne&Espacesverts@soufflet.com ; 129 impasse La Barcillonne ; 84190 ; BEAUMES DE VENISE ; France ;  ; /fr/beaumes-de-venise-magasin ; 
1688 ; 48.705134 ; 2.310271 ; CHILLY MAZARIN (MAGASIN) ; 01 64 48 90 30 ; chilly-mazarin.Vigne&Espacesverts@soufflet.com ; 4 Rue Hélène Boucher ; 91380 ; CHILLY MAZARIN ; France ;  ; /fr/chilly-mazarin-magasin ; 
1689 ; 48.9080581 ; 2.0437425 ; CHAMBOURCY (MAGASIN) ; 01 30 65 16 00 ; chambourcy.Vigne&Espacesverts@soufflet.com ; 48 Route De Mantes ; 78240 ; CHAMBOURCY ; France ;  ; /fr/chambourcy-magasin ; 
1690 ; 48.626922 ; 2.664534 ; LIMOGES FOURCHES (MAGASIN) ; 01 64 09 68 17 ; limoges.Vigne&Espacesverts@soufflet.com ; Rue du Parc ; 77550 ; LIMOGES FOURCHES ; France ;  ; /fr/limoges-fourches-magasin ; 
1702 ; 49.20427 ; 3.368581 ; OULCHY LE CHATEAU (SILO) ; 03.23.55.21.06 ; silo.oulchylechateau@soufflet.com ; Chez L'Etang Soufflet ; 02210 ; OULCHY LE CHÌÂTEAU ; France ;  ; /fr/oulchy-le-chateau-silo ; 
1703 ; 48.6891109 ; 3.870751 ; PLEURS (SILO) ; 03.26.80.12.26 ; silo.pleurs@soufflet.com ; A L'ouest des Grands Chatelli ; 51230 ; PLEURS ; France ;  ; /fr/pleurs-silo ; 
1660 ; 48.078666 ; 4.387983 ; POLISOT (MAGASIN) ; 03.25.29.71.00 ; polisot.Vigne&Espacesverts@soufflet.com ; 139 route de Polisot ; 10110 ; POLISOT ; France ;  ; /fr/polisot-magasin ; 
1661 ; 49.2124614 ; 4.0545439 ; CORMONTREUIL (MAGASIN) ; 03 26 06 72 41 ; cormontreuil.Vigne&Espacesverts@soufflet.com ; 49, Rue Blancs Monts ; 51530 ; CORMONTREUIL ; France ;  ; /fr/cormontreuil-magasin ; 
1665 ; 47.7463429 ; 3.6478815 ; SAINT BRIS LE VINEUX (MAGASIN) ; 03 86 53 69 79 ; st-bris-vineux.Vigne&Espacesverts@soufflet.com ; 31 route de Chitry ; 89530 ; SAINT BRIS LE VINEUX ; France ;  ; /fr/saint-bris-le-vineux-magasin ; 
1666 ; 47.3389778 ; 2.8645678 ; SAINT SATUR (MAGASIN) ; 02.48.54.34.60 ; sancerre.Vigne&Espacesverts@soufflet.com ; rue du Commerce ; 18300 ; SAINT SATUR ; France ;  ; /fr/saint-satur-magasin ; 
1636 ; 50.3499185 ; 3.509522 ; SOUFFLET ALIMENTAIRE VALENCIENNES ; 03 27 20 09 09 ;  ; 8 Rue Du Petit Bruxelles ; 59300 ; VALENCIENNES ; France ;  ; /fr/soufflet-alimentaire-valenciennes ; 
1623 ; 47.1216925 ; -2.0545002 ; PORNIC (MOULIN) ; 02 40 82 55 34 ;  ; 7 Place De La Gare ; 44215 ; PORNIC CEDEX ; France ;  ; /fr/pornic-moulin ; 
1625 ; 43.779136 ; 2.138652 ; DADOU (MOULIN) ; 05 63 42 01 23 ;  ; Troteco ; 81440 ; ST GENEST DE CONTEST ; France ;  ; /fr/dadou-moulin ; 
1579 ; 46.8456471 ; -1.4935024 ; LES LUCS SUR BOULOGNE (SILO) ; 02 51 47 91 54 ; silo.leslucs@soufflet.com ; Rue Vigne & Espaces Verts Gates ; 85170 ; LES LUCS SUR BOULOGNE ; France ;  ; /fr/les-lucs-sur-boulogne-silo ; 
1580 ; 46.4934327 ; -1.4248521 ; MOUTIERS LES MAUXFAITS (SILO) ; Silo : 02 51 98 93 07 - Magasin : 02 51 98 93 42 Entreprise: 02 51 98 94 33 ; silo.moutiers@soufflet.com ; 8 Av Georges Clemenceau ; 85540 ; MOUTIERS LES MAUXFAITS ; France ;  ; /fr/moutiers-les-mauxfaits-silo ; 
1582 ; 46.623093 ; -1.658188 ; LA MOTHE ACHARD (SILO) ; 02 51 47 90 04 ; silo.la-mothe-achard@soufflet.com ; Rue de Nantes ; 85150 ; ST GEORGES DE POINTINDOUX ; France ;  ; /fr/la-mothe-achard-silo ; 
1586 ; 46.6797814 ; -1.5164051 ; VENANSAULT (SILO) ; 02 51 31 43 45 ; silo.venansault@soufflet.com ; La Daviere ; 85190 ; VENANSAULT ; France ;  ; /fr/venansault-silo ; 
1587 ; 46.6288554 ; -1.188205 ; BOURNEZEAU (SILO) ; 02 51 40 77 60 ; silo.bournezeau@soufflet.com ; Le Pont Crotte ; 85480 ; BOURNEZEAU ; France ;  ; /fr/bournezeau-silo ; 
1591 ; 48.072687 ; 4.375447 ; POLISOT (MALTERIE) ; 03.25.38.34.34 ;  ; Grande Rue ; 10110 ; POLISOT ; France ;  ; /fr/polisot-malterie ; 
1593 ; 50.370729 ; 3.554938 ; SAINT-SAULVE (MALTERIE) ; 03.27.23.51.00 ;  ; rue President Lecuyer Zone industrielle 4 ; 59880 ; SAINT-SAULVE ; France ;  ; /fr/saint-saulve-malterie ; 
1541 ; 46.278189 ; -0.654278 ; ST GEORGES DE REX (SILO) ; 05 49 35 02 58 ; silo.saint-georges-de-rex@soufflet.com ; all marais ; 79210 ; SAINT GEORGES DE REX ; France ;  ; /fr/st-georges-de-rex-silo ; 
1542 ; 46.312426 ; -0.999285 ; MARANS (SILO) ; 03 25 30 41 01 ; silo.marans@soufflet.com ; Zi De La Pénissière - Cs Cs 10024 ; 17230 ; MARANS ; France ;  ; /fr/marans-silo ; 
1543 ; 46.1751147 ; -0.8450779 ; BOUHET (SILO) ; 05 46 35 52 72 ; silo.bouhet@soufflet.com ; 1 Route De Benon ; 17540 ; BOUHET ; France ;  ; /fr/bouhet-silo ; 
1547 ; 46.2692075 ; -0.8819874 ; ST JEAN DE LIVERSAY (SILO) ; 05 46 01 33 61 ; silo.saint-jean-de-liversay@soufflet.com ; 12 Rue Des Minimes ; 17170 ; SAINT JEAN DE LIVERSAY ; France ;  ; /fr/st-jean-de-liversay-silo ; 
1548 ; 46.303653 ; -0.818246 ; LA RONDE (SILO) ; 05 46 27 88 11 ; silo.laronde@soufflet.com ; Vieux Maille ; 17170 ; LA RONDE ; France ;  ; /fr/la-ronde-silo ; 
1549 ; 45.5350279 ; -0.652109 ; GEMOZAC - GRANDS CHAMPS (SILO) ; 05 46 94 64 64 ; silo.gemozacgrandschamps@soufflet.com ; Les Grands Champs ; 17260 ; GEMOZAC ; France ;  ; /fr/gemozac-grands-champs-silo ; 
1602 ; 46.435053 ; 16.988237 ; NAGYKANIZSA (MALTERIE) ; +36.93.326.594 ;  ; NAGYKANIZSA ; Csengery U. 111 ; 8800 ; Hongrie ;  ; /fr/nagykanizsa-malterie ; 
2054 ; 27.5094648 ; 76.6932438 ; ALWAR (MALTERIE) ; +91 70 42 14 42 82 ; baggarwal@soufflet.com ; Matsya Industrial Area ; RAJASTHAN ; 301030 ; Inde ;  ; /fr/alwar-malterie ; 
2039 ; 28.6139391 ; 77.2090212 ; SOUFFLET MALT INDIA PVT LTD ; 919818950583 ; dupont.malt@soufflet.com ; Rk Khanna Stadium Delhi Lawn Association Gate 3 Africa Africa ; NEW DELHI ; Inde ;  ;  ; /fr/soufflet-malt-india-pvt-ltd ; 
1604 ; 44.803101 ; 78.863701 ; TEKELI (MALTERIE) ; +77.283.545.733 ;  ; 41700 ; TEKELI ; Kunaeva St. 189 ; Kazakhstan ;  ; /fr/tekeli-malterie ; 
2037 ; 33.5933931 ; -7.6347153 ; POMME DE PAIN CASABLANCA ZIRAOUI ; (+212) 5223-96565 ;  ; Angle Du Boulevard Ziraoui Et Rue Mohamed Sediki ; CASABLANCA ; Maroc ;  ;  ; /fr/pomme-de-pain-casablanca-ziraoui ; 
2030 ; 33.5622565 ; -7.609146 ; POMME DE PAIN CASABLANCA 2 MARS ; (+212) 5225-70303 ;  ; 49, Boulevard 2 Mars ; 20000 ; CASABLANCA ; Maroc ;  ; /fr/pomme-de-pain-casablanca-2-mars ; 
2033 ; 33.5884769 ; -7.639017 ; POMME DE PAIN CASABLANCA RACINE ; (+212) 5223-96565 ;  ; 32, Rue Yaala Abou Al Ifrani Quartier Racine ; CASABLANCA ; Maroc ;  ;  ; /fr/pomme-de-pain-casablanca-racine ; 
2036 ; 33.5731104 ; -7.5898434 ; POMME DE PAIN CASABLANCA AÌN SBAÂ ; (+212) 5526-60303 ;  ; Route Cì«Tière De Zenata Ain Sbaâ, ; CASABLANCA ; Maroc ;  ;  ; /fr/pomme-de-pain-casablanca-ain-sbaa ; 
2035 ; 33.9715904 ; -6.8498129 ; POMME DE PAIN RABAT KITEA ; (+ 212) 5 37 63 13 07 ;  ; Kitéa Centre Commercial Kitéa Géant Rocade De Rabat, Hay Riad ; RABAT ; Maroc ;  ;  ; /fr/pomme-de-pain-rabat-kitea ; 
2032 ; 33.5731104 ; -7.5898434 ; POMME DE PAIN CASABLANCA MOROCCO MALL ;  ;  ; Morocco Mall Boulevard De Biarritz ; CASABLANCA ; Maroc ;  ;  ; /fr/pomme-de-pain-casablanca-morocco-mall ; 
1926 ; 39.3384417 ; -8.9427076 ; PANPOR, PRODUCTOS ALIMENTARES, S.A (PORTUGAL) ; +351 243 909 120 ;  ; Zona Industrial De Rio Maior, Lote 154 Apartado 35 ; 2040-357 ; RIO MAIOR ; Portugal ;  ; /fr/panpor-productos-alimentares-s-portugal ; 
1909 ; 44.6402778 ; 27.6586111 ; TANDAREI (SILO) ; 40742204140 ; istan@soufflet.com ; Strada Garii Nr.88 ; TANDAREI, JUD IALOMITA ; Roumanie ;  ;  ; /fr/tandarei-silo ; 
1908 ; 45.2691944 ; 27.9574722 ; BRAILA (SILO) ; 40740046188 ; gheil@soufflet.com ; Sos Baldovinesti Nr.9 ; JUD BRAILA ; Roumanie ;  ;  ; /fr/braila-silo ; 
1651 ; 45.1342855 ; 26.8290491 ; BUZAU ;  ;  ; Dn2b ; BUZAU ; Roumanie ;  ;  ; /fr/buzau ; 
1600 ; 45.14806 ; 26.823339 ; BUZAU (MALTERIE) ; +40.338.401.304 ;  ; Drum National 2b, Km9 ; 120164 ; BUZAU ; Roumanie ;  ; /fr/buzau-malterie ; 
2056 ; 56.0245335 ; 39.9903439 ; AIT RUSSIE ;  ;  ; Ul. Mira Lakinsk Sobinskii District Vladimir Region ; LAKINSK ; Vladimirskaya oblast' ; 601241 ; Russie ; /fr/ait-russie-0 ; 
1653 ; 52.494513 ; 39.938227 ; GRIAZY (SILO) ;  ;  ; Oul.Khlebozavodskaya, 7 ; GRIAZY ; 399060 ; Russie ;  ; /fr/griazy-silo ; 
1652 ; 52.494513 ; 39.938227 ; GRIAZY ;  ;  ; Oul.Khlebozavodskaya, 7 ; GRIAZY ; 399059 ; Russie ;  ; /fr/griazy ; 
1603 ; 60.06348 ; 30.355765 ; SAINT-PETERSBOURG (MALTERIE) ; +7 812 326 61 40 ; cnikitine@soufflet.com ; 6 Verkhny Pereoulok Dom 7 ; ST-PETERSBOURG ; Sankt-Peterburg ; 194292 ; Russie ; /fr/saint-petersbourg-malterie ; 
1606 ; 45.248429 ; 19.3886751 ; BACKA PALANKA (MALTERIE) ; +381.217.529.10 ;  ; Ind. Zona Bb ; 21400 ; BACKA PALANKA ; Serbie ;  ; /fr/backa-palanka-malterie ; 
2038 ; -29.78512 ; 30.76665 ; AIT INGREDIENTS SOUTH AFRICA (PTY) LTD ; +27 31 76 142 13 ; bporter@soufflet.com ; 5 Bishop Court - 10 Delamore Road ; HILLCREST ; 3610 ; Afrique du Sud ;  ; /fr/ait-ingredients-south-africa-pty-ltd ; 
1630 ; 40.4167754 ; -3.7037902 ; SOUFFLET ESPAGNE ; 00 34 915 64 39 25 ;  ; Calle Velìesquez N¡ 135 - 1¡ Dcha ; 28006 ; MADRID ; Espagne ;  ; /fr/soufflet-espagne ; 
1537 ; 40.4250344 ; -3.6829131 ; AIT ESPAGNE ;  ;  ; Calle Velìazquez, 135 - 1 dcha ; 28006 ; MADRID ; Madrid ; Espagne ; /fr/ait-espagne ; 
2031 ; 36.8561889 ; 10.155547 ; POMME DE PAIN TUNIS ENASR ; (+216) 23 477 444 ;  ; Avenue De Hédi Nouira, ; TUNIS ; Tunisie ;  ;  ; /fr/pomme-de-pain-tunis-enasr ; 
2029 ; 36.8139686 ; 10.1801461 ; POMME DE PAIN TUNIS ; (+216) 25 195 790 ; contact@pommedepain.com.tn ; Centre Commercial Champion Rue De La Palestine ; TUNIS ; Tunisie ;  ;  ; /fr/pomme-de-pain-tunis ; 
1657 ; 49.163685 ; 26.578231 ; GORODOK (SILO) ;  ;  ; 1 Schorsa Str. ; GORODOK ; 32000 ; Ukraine ;  ; /fr/gorodok-silo ; 
1656 ; 48.9286111 ; 28.9591667 ; KAROLINA (SILO) ;  ;  ; 7 Pryvokzalna Str. ; KAROLINA ; 22850 ; Ukraine ;  ; /fr/karolina-silo ; 
1655 ; 49.2397118 ; 30.1100502 ; JACHKOV (SILO) ;  ;  ; 1 Vokzalna Str ; JACHKOV ; 19200 ; Ukraine ;  ; /fr/jachkov-silo ; 
1654 ; 50.3027778 ; 26.8683333 ; SLAVUTA ;  ;  ; 138 Ostrozka Str ; SLAVUTA ; 30000 ; Ukraine ;  ; /fr/slavuta ; 
1628 ; 50.449519 ; 30.493499 ; NEW WORLD GRAIN UKRAINE ;  ;  ; Office 54 – N 15 Turgenevskaya ; KIEV ; _01054 ; Ukraine ;  ; /fr/new-world-grain-ukraine ; 
1605 ; 50.3027778 ; 26.8683333 ; SLAVUTA (MALTERIE) ; +380.38.42.706.91 ;  ; Kirov St. 138 ; SLAVUTA ; 30000 ; Ukraine ;  ; /fr/slavuta-malterie ; 
